<?xml version="1.0"?>
<osm version="0.6"  generator="FeatureImportSplitter" >
<node id="-12" lat="35.056849892" lon="-81.849363025" visible="true"><tag k="addr:housenumber" v="217" /><tag k="fixme" v=" ** Check before uploading ** " /><tag k="addr:city" v="Cowpens" /><tag k="tower:construction" v="guyed" /><tag k="man_made" v="mast" /><tag k="addr:state" v="SC" /><tag k="height" v="300'" /><tag k="postal_code" v="29330" /><tag k="start_date" v="1996" /><tag k="addr:street" v="South Fork Lane" /><tag k="tower:type" v="communication"/></node>
<node id="-24" lat="35.04007394" lon="-81.823211278" visible="true"><tag k="addr:housenumber" v="335" /><tag k="fixme" v=" ** Check before uploading ** " /><tag k="addr:city" v="Cowpens" /><tag k="tower:construction" v="guyed" /><tag k="man_made" v="mast" /><tag k="addr:state" v="SC" /><tag k="height" v="300'" /><tag k="postal_code" v="29330" /><tag k="start_date" v="1995" /><tag k="addr:street" v="Bud Arthur Bridge Road" /><tag k="tower:type" v="communication"/></node>
<node id="-25" lat="35.015083942" lon="-81.877874022" visible="true"><tag k="addr:housenumber" v="199" /><tag k="fixme" v=" ** Check before uploading ** " /><tag k="addr:city" v="Spartanburg" /><tag k="tower:construction" v="lattice" /><tag k="man_made" v="mast" /><tag k="addr:state" v="SC" /><tag k="height" v="260'" /><tag k="postal_code" v="29302" /><tag k="start_date" v="1999" /><tag k="addr:street" v="Ben Abi Road" /><tag k="tower:type" v="communication"/></node>
<node id="-26" lat="35.010502377" lon="-81.869079204" visible="true"><tag k="addr:housenumber" v="151" /><tag k="fixme" v=" ** Check before uploading ** " /><tag k="addr:city" v="Spartanburg" /><tag k="tower:construction" v="lattice" /><tag k="man_made" v="mast" /><tag k="addr:state" v="SC" /><tag k="height" v="250'" /><tag k="postal_code" v="29307" /><tag k="addr:street" v="Bennett Dairy Road" /><tag k="tower:type" v="communication"/></node>
<node id="-27" lat="35.012995086" lon="-81.869041433" visible="true"><tag k="addr:housenumber" v="251" /><tag k="fixme" v=" ** Check before uploading ** " /><tag k="addr:city" v="Spartanburg" /><tag k="man_made" v="mast" /><tag k="addr:state" v="SC" /><tag k="height" v="250'" /><tag k="postal_code" v="29307" /><tag k="addr:street" v="Bennett Dairy Road" /><tag k="tower:type" v="communication"/></node>
<node id="-28" lat="35.00742259" lon="-81.814234546" visible="true"><tag k="addr:housenumber" v="4973" /><tag k="fixme" v=" ** Check before uploading ** " /><tag k="addr:city" v="Cowpens" /><tag k="tower:construction" v="lattice" /><tag k="man_made" v="mast" /><tag k="addr:state" v="SC" /><tag k="height" v="180'" /><tag k="postal_code" v="29330" /><tag k="start_date" v="1998" /><tag k="addr:street" v="South Main Street" /><tag k="tower:type" v="communication"/></node>
<node id="-104" lat="34.989410131" lon="-81.852983067" visible="true"><tag k="addr:housenumber" v="3026" /><tag k="fixme" v=" ** Check before uploading ** " /><tag k="addr:city" v="Spartanburg" /><tag k="tower:construction" v="lattice" /><tag k="man_made" v="mast" /><tag k="addr:state" v="SC" /><tag k="height" v="180'" /><tag k="postal_code" v="29307" /><tag k="start_date" v="1998" /><tag k="addr:street" v="East Main Street Extension" /><tag k="tower:type" v="communication"/></node>
</osm>
