<?xml version="1.0"?>
<osm version="0.6"  generator="FeatureImportSplitter" >
<node id="-1" lat="35.177030455" lon="-82.155995506" visible="true"><tag k="addr:housenumber" v="251" /><tag k="fixme" v=" ** Check before uploading ** " /><tag k="addr:city" v="Landrum" /><tag k="tower:construction" v="lattice" /><tag k="man_made" v="mast" /><tag k="addr:state" v="SC" /><tag k="height" v="220'" /><tag k="postal_code" v="29356" /><tag k="start_date" v="1997" /><tag k="addr:street" v="Fairwinds Road" /><tag k="tower:type" v="communication"/></node>
<node id="-2" lat="35.127911733" lon="-82.189014935" visible="true"><tag k="addr:housenumber" v="12780" /><tag k="fixme" v=" ** Check before uploading ** " /><tag k="addr:city" v="Campobello" /><tag k="tower:construction" v="guyed" /><tag k="man_made" v="mast" /><tag k="addr:state" v="SC" /><tag k="height" v="275'" /><tag k="postal_code" v="29322" /><tag k="start_date" v="1998" /><tag k="addr:street" v="Highway 11" /><tag k="tower:type" v="communication"/></node>
<node id="-3" lat="35.144854313" lon="-82.102411374" visible="true"><tag k="addr:housenumber" v="76" /><tag k="fixme" v=" ** Check before uploading ** " /><tag k="addr:city" v="Campobello" /><tag k="tower:construction" v="guyed" /><tag k="man_made" v="mast" /><tag k="addr:state" v="SC" /><tag k="height" v="275'" /><tag k="postal_code" v="29322" /><tag k="start_date" v="1995" /><tag k="addr:street" v="Melvin Hill Road" /><tag k="tower:type" v="communication"/></node>
<node id="-4" lat="35.130425276" lon="-82.077170849" visible="true"><tag k="addr:housenumber" v="565" /><tag k="fixme" v=" ** Check before uploading ** " /><tag k="addr:city" v="Campobello" /><tag k="tower:construction" v="lattice" /><tag k="man_made" v="mast" /><tag k="addr:state" v="SC" /><tag k="height" v="250'" /><tag k="postal_code" v="29322" /><tag k="addr:street" v="Halls Bridge Road" /><tag k="tower:type" v="communication"/></node>
<node id="-7" lat="35.059879827" lon="-82.189546005" visible="true"><tag k="addr:housenumber" v="1541" /><tag k="fixme" v=" ** Check before uploading ** " /><tag k="addr:city" v="Campobello" /><tag k="man_made" v="mast" /><tag k="addr:state" v="SC" /><tag k="postal_code" v="29322" /><tag k="addr:street" v="Mount Lebanon Church Road" /><tag k="tower:type" v="communication"/></node>
<node id="-8" lat="35.06899039" lon="-82.104537118" visible="true"><tag k="addr:housenumber" v="141" /><tag k="fixme" v=" ** Check before uploading ** " /><tag k="addr:city" v="Inman" /><tag k="man_made" v="mast" /><tag k="addr:state" v="SC" /><tag k="postal_code" v="29349" /><tag k="addr:street" v="Howard Gap Road" /><tag k="tower:type" v="communication"/></node>
<node id="-9" lat="35.038400118" lon="-82.120999865" visible="true"><tag k="addr:housenumber" v="435" /><tag k="fixme" v=" ** Check before uploading ** " /><tag k="addr:city" v="Inman" /><tag k="tower:construction" v="guyed" /><tag k="man_made" v="mast" /><tag k="addr:state" v="SC" /><tag k="height" v="250'" /><tag k="postal_code" v="29349" /><tag k="start_date" v="1999" /><tag k="addr:street" v="Holly Springs Road" /><tag k="tower:type" v="communication"/></node>
<node id="-10" lat="35.011377304" lon="-82.176495717" visible="true"><tag k="addr:housenumber" v="135" /><tag k="fixme" v=" ** Check before uploading ** " /><tag k="addr:city" v="Inman" /><tag k="tower:construction" v="lattice" /><tag k="man_made" v="mast" /><tag k="addr:state" v="SC" /><tag k="height" v="250'" /><tag k="postal_code" v="29349" /><tag k="start_date" v="1998" /><tag k="addr:street" v="Cochran Road" /><tag k="tower:type" v="communication"/></node>
<node id="-13" lat="35.046902208" lon="-82.050792286" visible="true"><tag k="addr:housenumber" v="260" /><tag k="fixme" v=" ** Check before uploading ** " /><tag k="addr:city" v="Inman" /><tag k="man_made" v="mast" /><tag k="addr:state" v="SC" /><tag k="height" v="260'" /><tag k="postal_code" v="29349" /><tag k="start_date" v="1994" /><tag k="addr:street" v="Bryant Road" /><tag k="tower:type" v="communication"/></node>
<node id="-120" lat="35.118519535" lon="-82.084617022" visible="true"><tag k="addr:housenumber" v="130" /><tag k="fixme" v=" ** Check before uploading ** " /><tag k="addr:city" v="Inman" /><tag k="tower:construction" v="lattice" /><tag k="man_made" v="mast" /><tag k="addr:state" v="SC" /><tag k="height" v="250'" /><tag k="postal_code" v="29349" /><tag k="start_date" v="2000" /><tag k="addr:street" v="Farm Road" /><tag k="tower:type" v="communication"/></node>
<node id="-121" lat="35.084881855" lon="-82.059188001" visible="true"><tag k="addr:housenumber" v="140" /><tag k="fixme" v=" ** Check before uploading ** " /><tag k="addr:city" v="Inman" /><tag k="tower:construction" v="monopole" /><tag k="man_made" v="mast" /><tag k="addr:state" v="SC" /><tag k="height" v="195'" /><tag k="postal_code" v="29349" /><tag k="start_date" v="2000" /><tag k="addr:street" v="Miller Farm Road" /><tag k="tower:type" v="communication"/></node>
</osm>
