<?xml version="1.0"?>
<osm version="0.6"  generator="FeatureImportSplitter" >
<node id="-60" lat="34.900946075" lon="-82.08504171" visible="true"><tag k="addr:housenumber" v="700" /><tag k="fixme" v=" ** Check before uploading ** " /><tag k="addr:city" v="Duncan" /><tag k="man_made" v="mast" /><tag k="addr:state" v="SC" /><tag k="postal_code" v="29334" /><tag k="addr:street" v="River Ridge Road" /></node>
<node id="-61" lat="34.878702367" lon="-82.197526392" visible="true"><tag k="addr:housenumber" v="750" /><tag k="fixme" v=" ** Check before uploading ** " /><tag k="addr:city" v="Greer" /><tag k="man_made" v="mast" /><tag k="addr:state" v="SC" /><tag k="postal_code" v="29651" /><tag k="addr:street" v="Brockman Mcclimon Road" /></node>
<node id="-62" lat="34.874574889" lon="-82.183687729" visible="true"><tag k="fixme" v=" ** Check before uploading ** " /><tag k="addr:city" v="Greer" /><tag k="tower:construction" v="lattice" /><tag k="man_made" v="mast" /><tag k="addr:state" v="SC" /><tag k="height" v="215'" /><tag k="postal_code" v="29651" /><tag k="addr:street" v="Abner Creek Road" /></node>
<node id="-63" lat="34.881487132" lon="-82.145534392" visible="true"><tag k="addr:housenumber" v="125" /><tag k="fixme" v=" ** Check before uploading ** " /><tag k="addr:city" v="Duncan" /><tag k="man_made" v="mast" /><tag k="addr:state" v="SC" /><tag k="postal_code" v="29334" /><tag k="addr:street" v="Apple Valley Road" /></node>
<node id="-64" lat="34.875939202" lon="-82.126255932" visible="true"><tag k="fixme" v=" ** Check before uploading ** " /><tag k="addr:city" v="Duncan" /><tag k="man_made" v="mast" /><tag k="addr:state" v="SC" /><tag k="height" v="250'" /><tag k="postal_code" v="29334" /><tag k="start_date" v="1994" /><tag k="addr:street" v="Berry Shoals Road" /></node>
<node id="-66" lat="34.853513925" lon="-82.181690185" visible="true"><tag k="addr:housenumber" v="640" /><tag k="fixme" v=" ** Check before uploading ** " /><tag k="addr:city" v="Greer" /><tag k="man_made" v="mast" /><tag k="addr:state" v="SC" /><tag k="height" v="250'" /><tag k="postal_code" v="29651" /><tag k="start_date" v="1994" /><tag k="addr:street" v="Babewood Road" /></node>
<node id="-67" lat="34.873611757" lon="-82.126943059" visible="true"><tag k="addr:housenumber" v="1710" /><tag k="fixme" v=" ** Check before uploading ** " /><tag k="addr:city" v="Duncan" /><tag k="man_made" v="mast" /><tag k="addr:state" v="SC" /><tag k="postal_code" v="29334" /><tag k="addr:street" v="Duncan Reidville Road" /></node>
<node id="-68" lat="34.866532494" lon="-82.050741541" visible="true"><tag k="addr:housenumber" v="644" /><tag k="fixme" v=" ** Check before uploading ** " /><tag k="addr:city" v="Moore" /><tag k="tower:construction" v="lattice" /><tag k="man_made" v="mast" /><tag k="addr:state" v="SC" /><tag k="height" v="275'" /><tag k="postal_code" v="29369" /><tag k="start_date" v="1998" /><tag k="addr:street" v="Bethany Church Road" /></node>
<node id="-69" lat="34.843646354" lon="-82.166855237" visible="true"><tag k="addr:housenumber" v="740" /><tag k="fixme" v=" ** Check before uploading ** " /><tag k="addr:city" v="Greer" /><tag k="tower:construction" v="lattice" /><tag k="man_made" v="mast" /><tag k="addr:state" v="SC" /><tag k="height" v="250'" /><tag k="postal_code" v="29651" /><tag k="start_date" v="1998" /><tag k="addr:street" v="Burns Road" /></node>
<node id="-70" lat="34.845669915" lon="-82.097077571" visible="true"><tag k="addr:housenumber" v="401" /><tag k="fixme" v=" ** Check before uploading ** " /><tag k="addr:city" v="Woodruff" /><tag k="man_made" v="mast" /><tag k="addr:state" v="SC" /><tag k="postal_code" v="29388" /><tag k="addr:street" v="Cunningham Road" /></node>
<node id="-71" lat="34.970102346" lon="-82.051397902" visible="true"><tag k="fixme" v=" ** Check before uploading ** " /><tag k="addr:street" v="Mt Zion Road" /><tag k="man_made" v="mast" /><tag k="start_date" v="1994" /><tag k="height" v="193'" /></node>
<node id="-72" lat="34.964300168" lon="-82.052673362" visible="true"><tag k="addr:housenumber" v="125" /><tag k="fixme" v=" ** Check before uploading ** " /><tag k="addr:city" v="Wellford" /><tag k="man_made" v="mast" /><tag k="addr:state" v="SC" /><tag k="height" v="250'" /><tag k="postal_code" v="29385" /><tag k="start_date" v="1994" /><tag k="addr:street" v="Fort Prince Road" /></node>
<node id="-122" lat="34.933766513" lon="-82.082379097" visible="true"><tag k="addr:housenumber" v="2650" /><tag k="fixme" v=" ** Check before uploading ** " /><tag k="addr:city" v="Spartanburg" /><tag k="tower:construction" v="freestanding" /><tag k="man_made" v="mast" /><tag k="addr:state" v="SC" /><tag k="height" v="180'" /><tag k="addr:street" v="Nazareth Road" /></node>
</osm>

