<?xml version="1.0"?>
<osm version="0.6" upload="false" generator="FeatureImportSplitter" >
<node id="-33" lat="34.830666037" lon="-82.150433471" visible="true"><tag k="addr:housenumber" v="945" /><tag k="fixme" v=" ** Check before uploading ** " /><tag k="addr:city" v="Greer" /><tag k="man_made" v="mast" /><tag k="addr:state" v="SC" /><tag k="postal_code" v="29651" /><tag k="addr:street" v="Brockman Road" /></node>
<node id="-34" lat="34.83578538" lon="-82.069684413" visible="true"><tag k="addr:housenumber" v="1585" /><tag k="fixme" v=" ** Check before uploading ** " /><tag k="addr:city" v="Woodruff" /><tag k="tower:construction" v="guyed" /><tag k="man_made" v="mast" /><tag k="addr:state" v="SC" /><tag k="height" v="300'" /><tag k="postal_code" v="29388" /><tag k="start_date" v="1999" /><tag k="addr:street" v="Highway 417" /></node>
<node id="-35" lat="34.801328357" lon="-82.132357944" visible="true"><tag k="addr:housenumber" v="775" /><tag k="fixme" v=" ** Check before uploading ** " /><tag k="addr:city" v="Woodruff" /><tag k="tower:construction" v="lattice" /><tag k="man_made" v="mast" /><tag k="addr:state" v="SC" /><tag k="height" v="200'" /><tag k="postal_code" v="29388" /><tag k="start_date" v="1997" /><tag k="addr:street" v="Workman Road" /></node>
<node id="-47" lat="34.98487884" lon="-82.116271425" visible="true"><tag k="addr:housenumber" v="292" /><tag k="fixme" v=" ** Check before uploading ** " /><tag k="addr:city" v="Wellford" /><tag k="tower:construction" v="lattice" /><tag k="man_made" v="mast" /><tag k="addr:state" v="SC" /><tag k="height" v="250'" /><tag k="postal_code" v="29385" /><tag k="start_date" v="1998" /><tag k="addr:street" v="Halfmoon Road" /></node>
<node id="-48" lat="34.958405668" lon="-82.157431593" visible="true"><tag k="addr:housenumber" v="425" /><tag k="fixme" v=" ** Check before uploading ** " /><tag k="addr:city" v="Duncan" /><tag k="man_made" v="mast" /><tag k="addr:state" v="SC" /><tag k="postal_code" v="29334" /><tag k="addr:street" v="Edwards Road" /></node>
<node id="-49" lat="34.954026104" lon="-82.153781664" visible="true"><tag k="addr:housenumber" v="510" /><tag k="fixme" v=" ** Check before uploading ** " /><tag k="addr:city" v="Duncan" /><tag k="man_made" v="mast" /><tag k="addr:state" v="SC" /><tag k="postal_code" v="29334" /><tag k="addr:street" v="Gap Creek Road" /></node>
<node id="-50" lat="34.954167635" lon="-82.143646541" visible="true"><tag k="addr:housenumber" v="310" /><tag k="fixme" v=" ** Check before uploading ** " /><tag k="addr:city" v="Duncan" /><tag k="man_made" v="water_tower" /><tag k="addr:state" v="SC" /><tag k="height" v="100'" /><tag k="postal_code" v="29334" /><tag k="start_date" v="1997" /><tag k="addr:street" v="Pine Ridge Road" /></node>
<node id="-51" lat="34.9571106" lon="-82.123055555" visible="true"><tag k="addr:housenumber" v="217" /><tag k="fixme" v=" ** Check before uploading ** " /><tag k="addr:city" v="Lyman" /><tag k="man_made" v="mast" /><tag k="addr:state" v="SC" /><tag k="postal_code" v="29365" /><tag k="addr:street" v="Harvard Court" /></node>
<node id="-52" lat="34.94191446" lon="-82.101213166" visible="true"><tag k="addr:housenumber" v="575" /><tag k="fixme" v=" ** Check before uploading ** " /><tag k="addr:city" v="Wellford" /><tag k="tower:construction" v="guyed" /><tag k="man_made" v="mast" /><tag k="addr:state" v="SC" /><tag k="height" v="400'" /><tag k="postal_code" v="29385" /><tag k="addr:street" v="Old Spartanburg Highway" /></node>
<node id="-53" lat="34.932781377" lon="-82.082427705" visible="true"><tag k="addr:housenumber" v="2620" /><tag k="fixme" v=" ** Check before uploading ** " /><tag k="addr:city" v="Wellford" /><tag k="man_made" v="mast" /><tag k="addr:state" v="SC" /><tag k="height" v="190'" /><tag k="postal_code" v="29385" /><tag k="start_date" v="1993" /><tag k="addr:street" v="Nazareth Road" /></node>
<node id="-54" lat="34.932982425" lon="-82.074209436" visible="true"><tag k="addr:housenumber" v="230" /><tag k="fixme" v=" ** Check before uploading ** " /><tag k="addr:city" v="Wellford" /><tag k="man_made" v="mast" /><tag k="addr:state" v="SC" /><tag k="height" v="300'" /><tag k="postal_code" v="29385" /><tag k="start_date" v="1994" /><tag k="addr:street" v="New Hope Road" /></node>
<node id="-55" lat="34.902105699" lon="-82.198142931" visible="true"><tag k="addr:housenumber" v="451" /><tag k="fixme" v=" ** Check before uploading ** " /><tag k="addr:city" v="Greer" /><tag k="man_made" v="mast" /><tag k="addr:state" v="SC" /><tag k="postal_code" v="29651" /><tag k="addr:street" v="Aviation Drive" /></node>
<node id="-56" lat="34.903780893" lon="-82.182804879" visible="true"><tag k="addr:housenumber" v="825" /><tag k="fixme" v=" ** Check before uploading ** " /><tag k="addr:city" v="Greer" /><tag k="man_made" v="mast" /><tag k="addr:state" v="SC" /><tag k="height" v="133'" /><tag k="postal_code" v="29651" /><tag k="start_date" v="1996" /><tag k="addr:street" v="Victor Hill Road" /></node>
<node id="-57" lat="34.897895763" lon="-82.160020651" visible="true"><tag k="addr:housenumber" v="1511" /><tag k="fixme" v=" ** Check before uploading ** " /><tag k="addr:city" v="Greer" /><tag k="man_made" v="mast" /><tag k="addr:state" v="SC" /><tag k="postal_code" v="29651" /><tag k="addr:street" v="Highway 101 South" /></node>
<node id="-58" lat="34.899319541" lon="-82.132089113" visible="true"><tag k="addr:housenumber" v="230" /><tag k="fixme" v=" ** Check before uploading ** " /><tag k="addr:city" v="Duncan" /><tag k="tower:construction" v="lattice" /><tag k="man_made" v="mast" /><tag k="addr:state" v="SC" /><tag k="height" v="64'" /><tag k="postal_code" v="29334" /><tag k="start_date" v="1997" /><tag k="addr:street" v="East Victor Hill Road" /></node>
<node id="-59" lat="34.911869537" lon="-82.104175139" visible="true"><tag k="addr:housenumber" v="1517A" /><tag k="fixme" v=" ** Check before uploading ** " /><tag k="addr:city" v="Duncan" /><tag k="tower:construction" v="lattice" /><tag k="man_made" v="mast" /><tag k="addr:state" v="SC" /><tag k="height" v="260'" /><tag k="postal_code" v="29334" /><tag k="start_date" v="1998" /><tag k="addr:street" v="East Main Street" /></node>
<node id="-60" lat="34.900946075" lon="-82.08504171" visible="true"><tag k="addr:housenumber" v="700" /><tag k="fixme" v=" ** Check before uploading ** " /><tag k="addr:city" v="Duncan" /><tag k="man_made" v="mast" /><tag k="addr:state" v="SC" /><tag k="postal_code" v="29334" /><tag k="addr:street" v="River Ridge Road" /></node>
<node id="-61" lat="34.878702367" lon="-82.197526392" visible="true"><tag k="addr:housenumber" v="750" /><tag k="fixme" v=" ** Check before uploading ** " /><tag k="addr:city" v="Greer" /><tag k="man_made" v="mast" /><tag k="addr:state" v="SC" /><tag k="postal_code" v="29651" /><tag k="addr:street" v="Brockman Mcclimon Road" /></node>
<node id="-62" lat="34.874574889" lon="-82.183687729" visible="true"><tag k="fixme" v=" ** Check before uploading ** " /><tag k="addr:city" v="Greer" /><tag k="tower:construction" v="lattice" /><tag k="man_made" v="mast" /><tag k="addr:state" v="SC" /><tag k="height" v="215'" /><tag k="postal_code" v="29651" /><tag k="addr:street" v="Abner Creek Road" /></node>
<node id="-63" lat="34.881487132" lon="-82.145534392" visible="true"><tag k="addr:housenumber" v="125" /><tag k="fixme" v=" ** Check before uploading ** " /><tag k="addr:city" v="Duncan" /><tag k="man_made" v="mast" /><tag k="addr:state" v="SC" /><tag k="postal_code" v="29334" /><tag k="addr:street" v="Apple Valley Road" /></node>
<node id="-64" lat="34.875939202" lon="-82.126255932" visible="true"><tag k="fixme" v=" ** Check before uploading ** " /><tag k="addr:city" v="Duncan" /><tag k="man_made" v="mast" /><tag k="addr:state" v="SC" /><tag k="height" v="250'" /><tag k="postal_code" v="29334" /><tag k="start_date" v="1994" /><tag k="addr:street" v="Berry Shoals Road" /></node>
<node id="-66" lat="34.853513925" lon="-82.181690185" visible="true"><tag k="addr:housenumber" v="640" /><tag k="fixme" v=" ** Check before uploading ** " /><tag k="addr:city" v="Greer" /><tag k="man_made" v="mast" /><tag k="addr:state" v="SC" /><tag k="height" v="250'" /><tag k="postal_code" v="29651" /><tag k="start_date" v="1994" /><tag k="addr:street" v="Babewood Road" /></node>
<node id="-67" lat="34.873611757" lon="-82.126943059" visible="true"><tag k="addr:housenumber" v="1710" /><tag k="fixme" v=" ** Check before uploading ** " /><tag k="addr:city" v="Duncan" /><tag k="man_made" v="mast" /><tag k="addr:state" v="SC" /><tag k="postal_code" v="29334" /><tag k="addr:street" v="Duncan Reidville Road" /></node>
<node id="-68" lat="34.866532494" lon="-82.050741541" visible="true"><tag k="addr:housenumber" v="644" /><tag k="fixme" v=" ** Check before uploading ** " /><tag k="addr:city" v="Moore" /><tag k="tower:construction" v="lattice" /><tag k="man_made" v="mast" /><tag k="addr:state" v="SC" /><tag k="height" v="275'" /><tag k="postal_code" v="29369" /><tag k="start_date" v="1998" /><tag k="addr:street" v="Bethany Church Road" /></node>
<node id="-69" lat="34.843646354" lon="-82.166855237" visible="true"><tag k="addr:housenumber" v="740" /><tag k="fixme" v=" ** Check before uploading ** " /><tag k="addr:city" v="Greer" /><tag k="tower:construction" v="lattice" /><tag k="man_made" v="mast" /><tag k="addr:state" v="SC" /><tag k="height" v="250'" /><tag k="postal_code" v="29651" /><tag k="start_date" v="1998" /><tag k="addr:street" v="Burns Road" /></node>
<node id="-70" lat="34.845669915" lon="-82.097077571" visible="true"><tag k="addr:housenumber" v="401" /><tag k="fixme" v=" ** Check before uploading ** " /><tag k="addr:city" v="Woodruff" /><tag k="man_made" v="mast" /><tag k="addr:state" v="SC" /><tag k="postal_code" v="29388" /><tag k="addr:street" v="Cunningham Road" /></node>
<node id="-71" lat="34.970102346" lon="-82.051397902" visible="true"><tag k="fixme" v=" ** Check before uploading ** " /><tag k="addr:street" v="Mt Zion Road" /><tag k="man_made" v="mast" /><tag k="start_date" v="1994" /><tag k="height" v="193'" /></node>
<node id="-72" lat="34.964300168" lon="-82.052673362" visible="true"><tag k="addr:housenumber" v="125" /><tag k="fixme" v=" ** Check before uploading ** " /><tag k="addr:city" v="Wellford" /><tag k="man_made" v="mast" /><tag k="addr:state" v="SC" /><tag k="height" v="250'" /><tag k="postal_code" v="29385" /><tag k="start_date" v="1994" /><tag k="addr:street" v="Fort Prince Road" /></node>
<node id="-122" lat="34.933766513" lon="-82.082379097" visible="true"><tag k="addr:housenumber" v="2650" /><tag k="fixme" v=" ** Check before uploading ** " /><tag k="addr:city" v="Spartanburg" /><tag k="tower:construction" v="freestanding" /><tag k="man_made" v="mast" /><tag k="addr:state" v="SC" /><tag k="height" v="180'" /><tag k="addr:street" v="Nazareth Road" /></node>
</osm>
