<?xml version="1.0"?>
<osm version="0.6"  generator="FeatureImportSplitter" >
<node id="-29" lat="34.984862922" lon="-81.877452934" visible="true"><tag k="addr:housenumber" v="507" /><tag k="fixme" v=" ** Check before uploading ** " /><tag k="addr:city" v="Spartanburg" /><tag k="tower:construction" v="lattice" /><tag k="man_made" v="mast" /><tag k="addr:state" v="SC" /><tag k="height" v="163'" /><tag k="postal_code" v="29302" /><tag k="start_date" v="1993" /><tag k="addr:street" v="Plainview Drive" /></node>
<node id="-30" lat="34.95934955" lon="-81.809155175" visible="true"><tag k="addr:housenumber" v="1130" /><tag k="fixme" v=" ** Check before uploading ** " /><tag k="addr:city" v="Spartanburg" /><tag k="tower:construction" v="lattice" /><tag k="man_made" v="mast" /><tag k="addr:state" v="SC" /><tag k="height" v="195'" /><tag k="postal_code" v="29302" /><tag k="start_date" v="1999" /><tag k="addr:street" v="Goldmine Road" /></node>
<node id="-32" lat="34.909100099" lon="-81.822767513" visible="true"><tag k="addr:housenumber" v="409" /><tag k="fixme" v=" ** Check before uploading ** " /><tag k="addr:city" v="Spartanburg" /><tag k="tower:construction" v="guyed" /><tag k="man_made" v="mast" /><tag k="addr:state" v="SC" /><tag k="height" v="275'" /><tag k="postal_code" v="29302" /><tag k="start_date" v="1995" /><tag k="addr:street" v="Petrie Drive" /></node>
<node id="-111" lat="34.961583005" lon="-81.845504907" visible="true"><tag k="addr:housenumber" v="1916" /><tag k="fixme" v=" ** Check before uploading ** " /><tag k="addr:city" v="Spartanburg" /><tag k="man_made" v="mast" /><tag k="addr:state" v="SC" /><tag k="postal_code" v="29307" /><tag k="addr:street" v="Pineview Drive" /></node>
<node id="-112" lat="34.960737469" lon="-81.847248441" visible="true"><tag k="addr:housenumber" v="2000 - A" /><tag k="fixme" v=" ** Check before uploading ** " /><tag k="addr:city" v="Spartanburg" /><tag k="tower:construction" v="monopole" /><tag k="man_made" v="mast" /><tag k="addr:state" v="SC" /><tag k="height" v="180'" /><tag k="postal_code" v="29307" /><tag k="start_date" v="1999" /><tag k="addr:street" v="Pineview Drive" /></node>
<node id="-114" lat="34.930073331" lon="-81.889154537" visible="true"><tag k="addr:housenumber" v="171" /><tag k="fixme" v=" ** Check before uploading ** " /><tag k="addr:city" v="Spartanburg" /><tag k="tower:construction" v="lattice" /><tag k="man_made" v="mast" /><tag k="addr:state" v="SC" /><tag k="height" v="180'" /><tag k="postal_code" v="29302" /><tag k="start_date" v="1998" /><tag k="addr:street" v="Moreland Avenue" /></node>
<node id="-115" lat="34.92664506" lon="-81.836622681" visible="true"><tag k="addr:housenumber" v="2451" /><tag k="fixme" v=" ** Check before uploading ** " /><tag k="addr:city" v="Spartanburg" /><tag k="man_made" v="mast" /><tag k="addr:state" v="SC" /><tag k="height" v="250'" /><tag k="postal_code" v="29302" /><tag k="start_date" v="1992" /><tag k="addr:street" v="Whitestone Glendale Road" /></node>
<node id="-118" lat="34.911428536" lon="-81.84976926" visible="true"><tag k="addr:housenumber" v="210" /><tag k="fixme" v=" ** Check before uploading ** " /><tag k="addr:city" v="Spartanburg" /><tag k="man_made" v="mast" /><tag k="addr:state" v="SC" /><tag k="height" v="350'" /><tag k="postal_code" v="29302" /><tag k="start_date" v="1994" /><tag k="addr:street" v="Hickory Hill Road" /></node>
<node id="-119" lat="34.897233676" lon="-81.890294441" visible="true"><tag k="addr:housenumber" v="1749" /><tag k="fixme" v=" ** Check before uploading ** " /><tag k="addr:city" v="Spartanburg" /><tag k="tower:construction" v="lattice" /><tag k="man_made" v="mast" /><tag k="addr:state" v="SC" /><tag k="height" v="195'" /><tag k="postal_code" v="29301" /><tag k="start_date" v="1999" /><tag k="addr:street" v="Carolina County Club Road" /></node>
</osm>
