<?xml version="1.0"?>
<osm version="0.6"  generator="FeatureImportSplitter" >
<node id="-36" lat="34.794225399" lon="-82.044357847" visible="true"><tag k="addr:housenumber" v="724" /><tag k="fixme" v=" ** Check before uploading ** " /><tag k="addr:city" v="Woodruff" /><tag k="tower:construction" v="guyed" /><tag k="man_made" v="mast" /><tag k="addr:state" v="SC" /><tag k="height" v="250'" /><tag k="postal_code" v="29388" /><tag k="start_date" v="1999" /><tag k="addr:street" v="Waddell Road" /></node>
<node id="-37" lat="34.806936097" lon="-82.01881202" visible="true"><tag k="addr:housenumber" v="3106" /><tag k="fixme" v=" ** Check before uploading ** " /><tag k="addr:city" v="Moore" /><tag k="tower:construction" v="monopole" /><tag k="man_made" v="mast" /><tag k="addr:state" v="SC" /><tag k="height" v="180'" /><tag k="postal_code" v="29369" /><tag k="start_date" v="1998" /><tag k="addr:street" v="Old Spartanburg Highway" /></node>
<node id="-65" lat="34.892882955" lon="-82.045283267" visible="true"><tag k="addr:housenumber" v="155" /><tag k="fixme" v=" ** Check before uploading ** " /><tag k="addr:city" v="Moore" /><tag k="tower:construction" v="lattice" /><tag k="man_made" v="mast" /><tag k="addr:state" v="SC" /><tag k="height" v="225'" /><tag k="postal_code" v="29369" /><tag k="start_date" v="1995" /><tag k="addr:street" v="Hollified Lane" /></node>
<node id="-73" lat="34.96520031" lon="-82.022301777" visible="true"><tag k="addr:housenumber" v="5209" /><tag k="fixme" v=" ** Check before uploading ** " /><tag k="addr:city" v="Spartanburg" /><tag k="tower:construction" v="lattice" /><tag k="man_made" v="mast" /><tag k="addr:state" v="SC" /><tag k="height" v="195'" /><tag k="postal_code" v="29303" /><tag k="start_date" v="1999" /><tag k="addr:street" v="College Drive" /></node>
<node id="-74" lat="34.975329759" lon="-81.994370241" visible="true"><tag k="addr:housenumber" v="8780" /><tag k="fixme" v=" ** Check before uploading ** " /><tag k="addr:city" v="Spartanburg" /><tag k="tower:construction" v="lattice" /><tag k="man_made" v="mast" /><tag k="addr:state" v="SC" /><tag k="height" v="400'" /><tag k="postal_code" v="29303" /><tag k="start_date" v="1996" /><tag k="addr:street" v="Fairforest Road" /></node>
<node id="-75" lat="34.982306901" lon="-81.958363443" visible="true"><tag k="addr:housenumber" v="417" /><tag k="fixme" v=" ** Check before uploading ** " /><tag k="addr:city" v="Spartanburg" /><tag k="tower:construction" v="monopole" /><tag k="man_made" v="mast" /><tag k="addr:state" v="SC" /><tag k="height" v="165'" /><tag k="postal_code" v="29303" /><tag k="start_date" v="1997" /><tag k="addr:street" v="Graham Road" /></node>
<node id="-76" lat="34.968692494" lon="-81.9799341" visible="true"><tag k="addr:housenumber" v="440" /><tag k="fixme" v=" ** Check before uploading ** " /><tag k="addr:city" v="Spartanburg" /><tag k="tower:construction" v="lattice" /><tag k="man_made" v="mast" /><tag k="addr:state" v="SC" /><tag k="height" v="200'" /><tag k="postal_code" v="29301" /><tag k="addr:street" v="Old Greenville Highway" /></node>
<node id="-77" lat="34.942761748" lon="-82.008748202" visible="true"><tag k="addr:housenumber" v="1441" /><tag k="fixme" v=" ** Check before uploading ** " /><tag k="addr:city" v="Spartanburg" /><tag k="man_made" v="mast" /><tag k="addr:state" v="SC" /><tag k="postal_code" v="29301" /><tag k="start_date" v="1992" /><tag k="addr:street" v="Shoresbrook Drive" /></node>
<node id="-78" lat="34.944324772" lon="-82.008950619" visible="true"><tag k="addr:housenumber" v="3001A" /><tag k="fixme" v=" ** Check before uploading ** " /><tag k="addr:city" v="Spartanburg" /><tag k="tower:construction" v="monopole" /><tag k="man_made" v="mast" /><tag k="addr:state" v="SC" /><tag k="height" v="165'" /><tag k="postal_code" v="29301" /><tag k="start_date" v="1996" /><tag k="addr:street" v="North Blackstock Road" /></node>
<node id="-79" lat="34.962258218" lon="-81.99432648" visible="true"><tag k="addr:housenumber" v="35" /><tag k="fixme" v=" ** Check before uploading ** " /><tag k="addr:city" v="Arcadia" /><tag k="tower:construction" v="monopole" /><tag k="man_made" v="mast" /><tag k="addr:state" v="SC" /><tag k="height" v="165'" /><tag k="postal_code" v="29320" /><tag k="start_date" v="1996" /><tag k="addr:street" v="Henry Street" /></node>
<node id="-80" lat="34.948631793" lon="-81.995640686" visible="true"><tag k="addr:housenumber" v="626" /><tag k="fixme" v=" ** Check before uploading ** " /><tag k="addr:city" v="Spartanburg" /><tag k="tower:construction" v="lattice" /><tag k="man_made" v="mast" /><tag k="addr:state" v="SC" /><tag k="height" v="195'" /><tag k="postal_code" v="29301" /><tag k="start_date" v="1999" /><tag k="addr:street" v="West Blackstock Road" /></node>
<node id="-81" lat="34.958915779" lon="-81.979661419" visible="true"><tag k="addr:housenumber" v="711" /><tag k="fixme" v=" ** Check before uploading ** " /><tag k="addr:city" v="Spartanburg" /><tag k="man_made" v="mast" /><tag k="addr:state" v="SC" /><tag k="height" v="160'" /><tag k="postal_code" v="29301" /><tag k="start_date" v="1994" /><tag k="addr:street" v="Ethel Road" /></node>
<node id="-82" lat="34.935626622" lon="-82.031642784" visible="true"><tag k="addr:housenumber" v="145" /><tag k="fixme" v=" ** Check before uploading ** " /><tag k="addr:city" v="Spartanburg" /><tag k="tower:construction" v="lattice" /><tag k="man_made" v="mast" /><tag k="addr:state" v="SC" /><tag k="height" v="220'" /><tag k="postal_code" v="29301" /><tag k="start_date" v="1999" /><tag k="addr:street" v="Tradd Street" /></node>
<node id="-83" lat="34.916013854" lon="-81.993120685" visible="true"><tag k="addr:housenumber" v="100" /><tag k="fixme" v=" ** Check before uploading ** " /><tag k="addr:city" v="Spartanburg" /><tag k="tower:construction" v="monopole" /><tag k="man_made" v="mast" /><tag k="addr:state" v="SC" /><tag k="height" v="150'" /><tag k="postal_code" v="29301" /><tag k="start_date" v="1993" /><tag k="addr:street" v="Heath Lane" /></node>
<node id="-84" lat="34.917746413" lon="-81.988397172" visible="true"><tag k="addr:housenumber" v="350A" /><tag k="fixme" v=" ** Check before uploading ** " /><tag k="addr:city" v="Spartanburg" /><tag k="tower:construction" v="monopole" /><tag k="man_made" v="mast" /><tag k="addr:state" v="SC" /><tag k="height" v="110'" /><tag k="postal_code" v="29301" /><tag k="start_date" v="1996" /><tag k="addr:street" v="East Blackstock Road" /></node>
<node id="-85" lat="34.906437107" lon="-81.985213946" visible="true"><tag k="addr:housenumber" v="1110" /><tag k="fixme" v=" ** Check before uploading ** " /><tag k="addr:city" v="Moore" /><tag k="man_made" v="mast" /><tag k="addr:state" v="SC" /><tag k="postal_code" v="29369" /><tag k="addr:street" v="Old Anderson Mill Road" /></node>
<node id="-86" lat="34.897894888" lon="-81.984275313" visible="true"><tag k="addr:housenumber" v="125" /><tag k="fixme" v=" ** Check before uploading ** " /><tag k="addr:city" v="Moore" /><tag k="tower:construction" v="lattice" /><tag k="man_made" v="mast" /><tag k="addr:state" v="SC" /><tag k="height" v="150'" /><tag k="postal_code" v="29369" /><tag k="start_date" v="1996" /><tag k="addr:street" v="Bethlehem Church Road" /></node>
<node id="-87" lat="34.909445085" lon="-81.949845055" visible="true"><tag k="addr:housenumber" v="631" /><tag k="fixme" v=" ** Check before uploading ** " /><tag k="addr:city" v="Roebuck" /><tag k="tower:construction" v="lattice" /><tag k="man_made" v="mast" /><tag k="addr:state" v="SC" /><tag k="height" v="160'" /><tag k="postal_code" v="29376" /><tag k="start_date" v="1995" /><tag k="addr:street" v="Southport Road" /></node>
<node id="-88" lat="34.889618896" lon="-81.992082136" visible="true"><tag k="addr:housenumber" v="319" /><tag k="fixme" v=" ** Check before uploading ** " /><tag k="addr:city" v="Moore" /><tag k="tower:construction" v="monopole" /><tag k="man_made" v="mast" /><tag k="addr:state" v="SC" /><tag k="height" v="180'" /><tag k="postal_code" v="29369" /><tag k="start_date" v="1998" /><tag k="addr:street" v="Westside Road" /></node>
<node id="-89" lat="34.893883359" lon="-81.955585165" visible="true"><tag k="addr:housenumber" v="1485" /><tag k="fixme" v=" ** Check before uploading ** " /><tag k="addr:city" v="Roebuck" /><tag k="tower:construction" v="lattice" /><tag k="man_made" v="mast" /><tag k="addr:state" v="SC" /><tag k="height" v="180'" /><tag k="postal_code" v="29376" /><tag k="start_date" v="1998" /><tag k="addr:street" v="Old Georgia Road" /></node>
</osm>
