<?xml version="1.0"?>
<osm version="0.6"  generator="FeatureImportSplitter" >
<node id="-33" lat="34.830666037" lon="-82.150433471" visible="true"><tag k="addr:housenumber" v="945" /><tag k="fixme" v=" ** Check before uploading ** " /><tag k="addr:city" v="Greer" /><tag k="man_made" v="mast" /><tag k="addr:state" v="SC" /><tag k="postal_code" v="29651" /><tag k="addr:street" v="Brockman Road" /><tag k="tower:type" v="communication"/></node>
<node id="-34" lat="34.83578538" lon="-82.069684413" visible="true"><tag k="addr:housenumber" v="1585" /><tag k="fixme" v=" ** Check before uploading ** " /><tag k="addr:city" v="Woodruff" /><tag k="tower:construction" v="guyed" /><tag k="man_made" v="mast" /><tag k="addr:state" v="SC" /><tag k="height" v="300'" /><tag k="postal_code" v="29388" /><tag k="start_date" v="1999" /><tag k="addr:street" v="Highway 417" /><tag k="tower:type" v="communication"/></node>
<node id="-35" lat="34.801328357" lon="-82.132357944" visible="true"><tag k="addr:housenumber" v="775" /><tag k="fixme" v=" ** Check before uploading ** " /><tag k="addr:city" v="Woodruff" /><tag k="tower:construction" v="lattice" /><tag k="man_made" v="mast" /><tag k="addr:state" v="SC" /><tag k="height" v="200'" /><tag k="postal_code" v="29388" /><tag k="start_date" v="1997" /><tag k="addr:street" v="Workman Road" /><tag k="tower:type" v="communication"/></node>
<node id="-47" lat="34.98487884" lon="-82.116271425" visible="true"><tag k="addr:housenumber" v="292" /><tag k="fixme" v=" ** Check before uploading ** " /><tag k="addr:city" v="Wellford" /><tag k="tower:construction" v="lattice" /><tag k="man_made" v="mast" /><tag k="addr:state" v="SC" /><tag k="height" v="250'" /><tag k="postal_code" v="29385" /><tag k="start_date" v="1998" /><tag k="addr:street" v="Halfmoon Road" /><tag k="tower:type" v="communication"/></node>
<node id="-48" lat="34.958405668" lon="-82.157431593" visible="true"><tag k="addr:housenumber" v="425" /><tag k="fixme" v=" ** Check before uploading ** " /><tag k="addr:city" v="Duncan" /><tag k="man_made" v="mast" /><tag k="addr:state" v="SC" /><tag k="postal_code" v="29334" /><tag k="addr:street" v="Edwards Road" /><tag k="tower:type" v="communication"/></node>
<node id="-49" lat="34.954026104" lon="-82.153781664" visible="true"><tag k="addr:housenumber" v="510" /><tag k="fixme" v=" ** Check before uploading ** " /><tag k="addr:city" v="Duncan" /><tag k="man_made" v="mast" /><tag k="addr:state" v="SC" /><tag k="postal_code" v="29334" /><tag k="addr:street" v="Gap Creek Road" /><tag k="tower:type" v="communication"/></node>
<node id="-50" lat="34.954167635" lon="-82.143646541" visible="true"><tag k="addr:housenumber" v="310" /><tag k="fixme" v=" ** Check before uploading ** " /><tag k="addr:city" v="Duncan" /><tag k="man_made" v="water_tower" /><tag k="addr:state" v="SC" /><tag k="height" v="100'" /><tag k="postal_code" v="29334" /><tag k="start_date" v="1997" /><tag k="addr:street" v="Pine Ridge Road" /></node>
<node id="-51" lat="34.9571106" lon="-82.123055555" visible="true"><tag k="addr:housenumber" v="217" /><tag k="fixme" v=" ** Check before uploading ** " /><tag k="addr:city" v="Lyman" /><tag k="man_made" v="mast" /><tag k="addr:state" v="SC" /><tag k="postal_code" v="29365" /><tag k="addr:street" v="Harvard Court" /><tag k="tower:type" v="communication"/></node>
<node id="-52" lat="34.94191446" lon="-82.101213166" visible="true"><tag k="addr:housenumber" v="575" /><tag k="fixme" v=" ** Check before uploading ** " /><tag k="addr:city" v="Wellford" /><tag k="tower:construction" v="guyed" /><tag k="man_made" v="mast" /><tag k="addr:state" v="SC" /><tag k="height" v="400'" /><tag k="postal_code" v="29385" /><tag k="addr:street" v="Old Spartanburg Highway" /><tag k="tower:type" v="communication"/></node>
<node id="-53" lat="34.932781377" lon="-82.082427705" visible="true"><tag k="addr:housenumber" v="2620" /><tag k="fixme" v=" ** Check before uploading ** " /><tag k="addr:city" v="Wellford" /><tag k="man_made" v="mast" /><tag k="addr:state" v="SC" /><tag k="height" v="190'" /><tag k="postal_code" v="29385" /><tag k="start_date" v="1993" /><tag k="addr:street" v="Nazareth Road" /><tag k="tower:type" v="communication"/></node>
<node id="-54" lat="34.932982425" lon="-82.074209436" visible="true"><tag k="addr:housenumber" v="230" /><tag k="fixme" v=" ** Check before uploading ** " /><tag k="addr:city" v="Wellford" /><tag k="man_made" v="mast" /><tag k="addr:state" v="SC" /><tag k="height" v="300'" /><tag k="postal_code" v="29385" /><tag k="start_date" v="1994" /><tag k="addr:street" v="New Hope Road" /><tag k="tower:type" v="communication"/></node>
<node id="-55" lat="34.902105699" lon="-82.198142931" visible="true"><tag k="addr:housenumber" v="451" /><tag k="fixme" v=" ** Check before uploading ** " /><tag k="addr:city" v="Greer" /><tag k="man_made" v="mast" /><tag k="addr:state" v="SC" /><tag k="postal_code" v="29651" /><tag k="addr:street" v="Aviation Drive" /><tag k="tower:type" v="communication"/></node>
</osm>

