<?xml version="1.0"?>
<osm version="0.6" upload="false" generator="FeatureImportSplitter" >
<node id="-38" lat="34.79090823" lon="-82.020695753" visible="true"><tag k="addr:housenumber" v="8481" /><tag k="fixme" v=" ** Check before uploading ** " /><tag k="addr:city" v="Woodruff" /><tag k="tower:construction" v="lattice" /><tag k="man_made" v="mast" /><tag k="addr:state" v="SC" /><tag k="height" v="230'" /><tag k="postal_code" v="29388" /><tag k="start_date" v="1999" /><tag k="addr:street" v="Highway 221" /></node>
<node id="-39" lat="34.74904021" lon="-82.04672937" visible="true"><tag k="addr:housenumber" v="804" /><tag k="fixme" v=" ** Check before uploading ** " /><tag k="addr:city" v="Woodruff" /><tag k="man_made" v="mast" /><tag k="addr:state" v="SC" /><tag k="postal_code" v="29388" /><tag k="addr:street" v="North Main Street" /></node>
<node id="-40" lat="34.749206251" lon="-81.95010254" visible="true"><tag k="addr:housenumber" v="4050" /><tag k="fixme" v=" ** Check before uploading ** " /><tag k="addr:city" v="Roebuck" /><tag k="man_made" v="mast" /><tag k="addr:state" v="SC" /><tag k="height" v="300'" /><tag k="postal_code" v="29376" /><tag k="start_date" v="1998" /><tag k="addr:street" v="Walnut Grove Road" /></node>
<node id="-41" lat="34.701025579" lon="-81.947034628" visible="true"><tag k="addr:housenumber" v="3435" /><tag k="fixme" v=" ** Check before uploading ** " /><tag k="addr:city" v="Enoree" /><tag k="tower:construction" v="guyed" /><tag k="man_made" v="mast" /><tag k="addr:state" v="SC" /><tag k="height" v="300'" /><tag k="postal_code" v="29335" /><tag k="start_date" v="1996" /><tag k="addr:street" v="Cross Anchor Road" /></node>
<node id="-42" lat="34.702986422" lon="-81.939567175" visible="true"><tag k="addr:housenumber" v="151" /><tag k="fixme" v=" ** Check before uploading ** " /><tag k="addr:city" v="Enoree" /><tag k="man_made" v="mast" /><tag k="addr:state" v="SC" /><tag k="height" v="250'" /><tag k="postal_code" v="29335" /><tag k="start_date" v="1992" /><tag k="addr:street" v="Chumley Road" /></node>
<node id="-43" lat="34.662858983" lon="-81.938741831" visible="true"><tag k="addr:housenumber" v="1899" /><tag k="fixme" v=" ** Check before uploading ** " /><tag k="addr:city" v="Enoree" /><tag k="man_made" v="mast" /><tag k="addr:state" v="SC" /><tag k="height" v="160'" /><tag k="postal_code" v="29335" /><tag k="start_date" v="1995" /><tag k="addr:street" v="Highway 92" /></node>
<node id="-44" lat="34.659615252" lon="-81.92004623" visible="true"><tag k="addr:housenumber" v="2080" /><tag k="fixme" v=" ** Check before uploading ** " /><tag k="addr:city" v="Enoree" /><tag k="tower:construction" v="lattice" /><tag k="man_made" v="mast" /><tag k="addr:state" v="SC" /><tag k="height" v="250'" /><tag k="postal_code" v="29335" /><tag k="start_date" v="1998" /><tag k="addr:street" v="Browning Road" /></node>
<node id="-45" lat="34.655032485" lon="-81.923254433" visible="true"><tag k="fixme" v=" ** Check before uploading ** " /><tag k="addr:city" v="Enoree" /><tag k="tower:construction" v="guyed" /><tag k="man_made" v="mast" /><tag k="addr:state" v="SC" /><tag k="height" v="250'" /><tag k="postal_code" v="29335" /><tag k="start_date" v="1995" /><tag k="addr:street" v="Ridge Road" /></node>
<node id="-99" lat="34.784202861" lon="-81.938992306" visible="true"><tag k="addr:housenumber" v="215" /><tag k="fixme" v=" ** Check before uploading ** " /><tag k="addr:city" v="Roebuck" /><tag k="man_made" v="mast" /><tag k="addr:state" v="SC" /><tag k="height" v="250'" /><tag k="postal_code" v="29376" /><tag k="start_date" v="1994" /><tag k="addr:street" v="Hatchett Road" /></node>
</osm>
