<?xml version="1.0"?>
<osm version="0.6" upload="false" generator="FeatureImportSplitter" >
<node id="-5" lat="35.154116417" lon="-81.964810727" visible="true"><tag k="addr:housenumber" v="3420" /><tag k="fixme" v=" ** Check before uploading ** " /><tag k="addr:city" v="Chesnee" /><tag k="tower:construction" v="guyed" /><tag k="man_made" v="mast" /><tag k="addr:state" v="SC" /><tag k="height" v="300'" /><tag k="postal_code" v="29323" /><tag k="start_date" v="1999" /><tag k="addr:street" v="Highway 11 West" /></node>
<node id="-6" lat="35.129322009" lon="-81.901610392" visible="true"><tag k="addr:housenumber" v="195" /><tag k="fixme" v=" ** Check before uploading ** " /><tag k="addr:city" v="Chesnee" /><tag k="man_made" v="mast" /><tag k="addr:state" v="SC" /><tag k="height" v="300'" /><tag k="postal_code" v="29323" /><tag k="start_date" v="1993" /><tag k="addr:street" v="Minnow Farm Road" /></node>
<node id="-11" lat="35.063109483" lon="-82.002039907" visible="true"><tag k="addr:housenumber" v="4581" /><tag k="fixme" v=" ** Check before uploading ** " /><tag k="addr:city" v="Inman" /><tag k="tower:construction" v="lattice" /><tag k="man_made" v="mast" /><tag k="addr:state" v="SC" /><tag k="height" v="250'" /><tag k="postal_code" v="29349" /><tag k="start_date" v="1998" /><tag k="addr:street" v="Highway 9" /></node>
<node id="-14" lat="35.030516675" lon="-82.037014764" visible="true"><tag k="addr:housenumber" v="9614" /><tag k="fixme" v=" ** Check before uploading ** " /><tag k="addr:city" v="Inman" /><tag k="tower:construction" v="lattice" /><tag k="man_made" v="mast" /><tag k="addr:state" v="SC" /><tag k="height" v="190'" /><tag k="postal_code" v="29349" /><tag k="start_date" v="1997" /><tag k="addr:street" v="Asheville Highway" /></node>
<node id="-15" lat="35.042281829" lon="-81.954998649" visible="true"><tag k="addr:housenumber" v="150" /><tag k="fixme" v=" ** Check before uploading ** " /><tag k="addr:city" v="Boiling Springs" /><tag k="tower:construction" v="lattice" /><tag k="man_made" v="mast" /><tag k="addr:state" v="SC" /><tag k="height" v="185'" /><tag k="postal_code" v="29316" /><tag k="start_date" v="1995" /><tag k="addr:street" v="Thompson Creek Road" /></node>
<node id="-16" lat="35.041134256" lon="-81.98242528" visible="true"><tag k="addr:housenumber" v="864" /><tag k="fixme" v=" ** Check before uploading ** " /><tag k="addr:city" v="Boiling Springs" /><tag k="tower:construction" v="monopole" /><tag k="man_made" v="mast" /><tag k="addr:state" v="SC" /><tag k="height" v="180'" /><tag k="postal_code" v="29316" /><tag k="start_date" v="1998" /><tag k="addr:street" v="Double Bridge Road" /></node>
<node id="-17" lat="35.022467031" lon="-81.933692525" visible="true"><tag k="addr:housenumber" v="1271" /><tag k="fixme" v=" ** Check before uploading ** " /><tag k="addr:city" v="Spartanburg" /><tag k="man_made" v="mast" /><tag k="addr:state" v="SC" /><tag k="height" v="140'" /><tag k="postal_code" v="29303" /><tag k="start_date" v="1992" /><tag k="addr:street" v="Bryant Road" /></node>
<node id="-18" lat="35.019107777" lon="-82.020948971" visible="true"><tag k="addr:housenumber" v="179" /><tag k="fixme" v=" ** Check before uploading ** " /><tag k="addr:city" v="Boiling Springs" /><tag k="tower:construction" v="guyed" /><tag k="man_made" v="mast" /><tag k="addr:state" v="SC" /><tag k="height" v="250'" /><tag k="postal_code" v="29316" /><tag k="start_date" v="1993" /><tag k="addr:street" v="John Dodd Road" /></node>
<node id="-19" lat="35.012603606" lon="-81.976821761" visible="true"><tag k="addr:housenumber" v="170" /><tag k="fixme" v=" ** Check before uploading ** " /><tag k="addr:city" v="Spartanburg" /><tag k="tower:construction" v="lattice" /><tag k="man_made" v="mast" /><tag k="addr:state" v="SC" /><tag k="height" v="190'" /><tag k="postal_code" v="29303" /><tag k="start_date" v="1997" /><tag k="addr:street" v="Baby Road" /></node>
<node id="-20" lat="35.015868064" lon="-81.938182355" visible="true"><tag k="addr:housenumber" v="1203A" /><tag k="fixme" v=" ** Check before uploading ** " /><tag k="addr:city" v="Spartanburg" /><tag k="tower:construction" v="lattice" /><tag k="man_made" v="mast" /><tag k="addr:state" v="SC" /><tag k="height" v="200'" /><tag k="postal_code" v="29303" /><tag k="start_date" v="1996" /><tag k="addr:street" v="Fairview Church Road" /></node>
<node id="-21" lat="34.992373088" lon="-82.01355414" visible="true"><tag k="addr:housenumber" v="3033" /><tag k="fixme" v=" ** Check before uploading ** " /><tag k="addr:city" v="Spartanburg" /><tag k="man_made" v="mast" /><tag k="addr:state" v="SC" /><tag k="height" v="163'" /><tag k="postal_code" v="29303" /><tag k="start_date" v="1994" /><tag k="addr:street" v="Retha Drive" /></node>
<node id="-22" lat="35.003511548" lon="-82.01932233" visible="true"><tag k="addr:housenumber" v="430" /><tag k="fixme" v=" ** Check before uploading ** " /><tag k="addr:city" v="Spartanburg" /><tag k="tower:construction" v="monopole" /><tag k="man_made" v="mast" /><tag k="addr:state" v="SC" /><tag k="height" v="165'" /><tag k="postal_code" v="29303" /><tag k="start_date" v="1997" /><tag k="addr:street" v="Monks Grove Church Road" /></node>
<node id="-23" lat="34.99579932" lon="-81.985690162" visible="true"><tag k="addr:housenumber" v="291" /><tag k="fixme" v=" ** Check before uploading ** " /><tag k="addr:city" v="Spartanburg" /><tag k="tower:construction" v="lattice" /><tag k="man_made" v="mast" /><tag k="addr:state" v="SC" /><tag k="height" v="260'" /><tag k="postal_code" v="29303" /><tag k="start_date" v="1998" /><tag k="addr:street" v="Access Road" /></node>
<node id="-100" lat="35.009648664" lon="-81.926397973" visible="true"><tag k="addr:housenumber" v="740" /><tag k="fixme" v=" ** Check before uploading ** " /><tag k="addr:city" v="Spartanburg" /><tag k="tower:construction" v="lattice" /><tag k="man_made" v="mast" /><tag k="addr:state" v="SC" /><tag k="height" v="180'" /><tag k="postal_code" v="29303" /><tag k="start_date" v="1998" /><tag k="addr:street" v="Bryant Road" /></node>
<node id="-101" lat="35.018298007" lon="-81.928213137" visible="true"><tag k="addr:housenumber" v="1310" /><tag k="fixme" v=" ** Check before uploading ** " /><tag k="addr:city" v="Spartanburg" /><tag k="man_made" v="mast" /><tag k="addr:state" v="SC" /><tag k="postal_code" v="29303" /><tag k="addr:street" v="Bryant Road" /></node>
<node id="-102" lat="34.989676709" lon="-81.935752767" visible="true"><tag k="addr:housenumber" v="1141" /><tag k="fixme" v=" ** Check before uploading ** " /><tag k="addr:city" v="Spartanburg" /><tag k="man_made" v="mast" /><tag k="addr:state" v="SC" /><tag k="postal_code" v="29303" /><tag k="addr:street" v="Iron Ore Road" /></node>
<node id="-103" lat="34.987421534" lon="-81.931787729" visible="true"><tag k="addr:housenumber" v="15" /><tag k="fixme" v=" ** Check before uploading ** " /><tag k="addr:city" v="Spartanburg" /><tag k="tower:construction" v="lattice" /><tag k="man_made" v="mast" /><tag k="addr:state" v="SC" /><tag k="height" v="169'" /><tag k="postal_code" v="29303" /><tag k="start_date" v="1995" /><tag k="addr:street" v="Ash Street" /></node>
</osm>
