<?xml version="1.0"?>
<osm version="0.6" upload="false" generator="uvmogr2osm">
<node id="-1" lat="35.177030455" lon="-82.155995506" visible="true"><tag k="addr:housenumber" v="251"/><tag k="fixme" v=" ** Check before uploading ** "/><tag k="addr:city" v="Landrum"/><tag k="tower:construction" v="lattice"/><tag k="man_made" v="mast"/><tag k="addr:state" v="SC"/><tag k="height" v="220'"/><tag k="postal_code" v="29356"/><tag k="start_date" v="1997"/><tag k="addr:street" v="Fairwinds Road"/><tag k="tower:type" v="communication"/></node>
<node id="-2" lat="35.127911733" lon="-82.189014935" visible="true"><tag k="addr:housenumber" v="12780"/><tag k="fixme" v=" ** Check before uploading ** "/><tag k="addr:city" v="Campobello"/><tag k="tower:construction" v="guyed"/><tag k="man_made" v="mast"/><tag k="addr:state" v="SC"/><tag k="height" v="275'"/><tag k="postal_code" v="29322"/><tag k="start_date" v="1998"/><tag k="addr:street" v="Highway 11"/><tag k="tower:type" v="communication"/></node>
<node id="-3" lat="35.144854313" lon="-82.102411374" visible="true"><tag k="addr:housenumber" v="76"/><tag k="fixme" v=" ** Check before uploading ** "/><tag k="addr:city" v="Campobello"/><tag k="tower:construction" v="guyed"/><tag k="man_made" v="mast"/><tag k="addr:state" v="SC"/><tag k="height" v="275'"/><tag k="postal_code" v="29322"/><tag k="start_date" v="1995"/><tag k="addr:street" v="Melvin Hill Road"/><tag k="tower:type" v="communication"/></node>
<node id="-4" lat="35.130425276" lon="-82.077170849" visible="true"><tag k="addr:housenumber" v="565"/><tag k="fixme" v=" ** Check before uploading ** "/><tag k="addr:city" v="Campobello"/><tag k="tower:construction" v="lattice"/><tag k="man_made" v="mast"/><tag k="addr:state" v="SC"/><tag k="height" v="250'"/><tag k="postal_code" v="29322"/><tag k="addr:street" v="Halls Bridge Road"/><tag k="tower:type" v="communication"/></node>
<node id="-5" lat="35.154116417" lon="-81.964810727" visible="true"><tag k="addr:housenumber" v="3420"/><tag k="fixme" v=" ** Check before uploading ** "/><tag k="addr:city" v="Chesnee"/><tag k="tower:construction" v="guyed"/><tag k="man_made" v="mast"/><tag k="addr:state" v="SC"/><tag k="height" v="300'"/><tag k="postal_code" v="29323"/><tag k="start_date" v="1999"/><tag k="addr:street" v="Highway 11 West"/><tag k="tower:type" v="communication"/></node>
<node id="-6" lat="35.129322009" lon="-81.901610392" visible="true"><tag k="addr:housenumber" v="195"/><tag k="fixme" v=" ** Check before uploading ** "/><tag k="addr:city" v="Chesnee"/><tag k="man_made" v="mast"/><tag k="addr:state" v="SC"/><tag k="height" v="300'"/><tag k="postal_code" v="29323"/><tag k="start_date" v="1993"/><tag k="addr:street" v="Minnow Farm Road"/><tag k="tower:type" v="communication"/></node>
<node id="-7" lat="35.059879827" lon="-82.189546005" visible="true"><tag k="addr:housenumber" v="1541"/><tag k="fixme" v=" ** Check before uploading ** "/><tag k="addr:city" v="Campobello"/><tag k="man_made" v="mast"/><tag k="addr:state" v="SC"/><tag k="postal_code" v="29322"/><tag k="addr:street" v="Mount Lebanon Church Road"/><tag k="tower:type" v="communication"/></node>
<node id="-8" lat="35.06899039" lon="-82.104537118" visible="true"><tag k="addr:housenumber" v="141"/><tag k="fixme" v=" ** Check before uploading ** "/><tag k="addr:city" v="Inman"/><tag k="man_made" v="mast"/><tag k="addr:state" v="SC"/><tag k="postal_code" v="29349"/><tag k="addr:street" v="Howard Gap Road"/><tag k="tower:type" v="communication"/></node>
<node id="-9" lat="35.038400118" lon="-82.120999865" visible="true"><tag k="addr:housenumber" v="435"/><tag k="fixme" v=" ** Check before uploading ** "/><tag k="addr:city" v="Inman"/><tag k="tower:construction" v="guyed"/><tag k="man_made" v="mast"/><tag k="addr:state" v="SC"/><tag k="height" v="250'"/><tag k="postal_code" v="29349"/><tag k="start_date" v="1999"/><tag k="addr:street" v="Holly Springs Road"/><tag k="tower:type" v="communication"/></node>
<node id="-10" lat="35.011377304" lon="-82.176495717" visible="true"><tag k="addr:housenumber" v="135"/><tag k="fixme" v=" ** Check before uploading ** "/><tag k="addr:city" v="Inman"/><tag k="tower:construction" v="lattice"/><tag k="man_made" v="mast"/><tag k="addr:state" v="SC"/><tag k="height" v="250'"/><tag k="postal_code" v="29349"/><tag k="start_date" v="1998"/><tag k="addr:street" v="Cochran Road"/><tag k="tower:type" v="communication"/></node>
<node id="-11" lat="35.063109483" lon="-82.002039907" visible="true"><tag k="addr:housenumber" v="4581"/><tag k="fixme" v=" ** Check before uploading ** "/><tag k="addr:city" v="Inman"/><tag k="tower:construction" v="lattice"/><tag k="man_made" v="mast"/><tag k="addr:state" v="SC"/><tag k="height" v="250'"/><tag k="postal_code" v="29349"/><tag k="start_date" v="1998"/><tag k="addr:street" v="Highway 9"/><tag k="tower:type" v="communication"/></node>
<node id="-12" lat="35.056849892" lon="-81.849363025" visible="true"><tag k="addr:housenumber" v="217"/><tag k="fixme" v=" ** Check before uploading ** "/><tag k="addr:city" v="Cowpens"/><tag k="tower:construction" v="guyed"/><tag k="man_made" v="mast"/><tag k="addr:state" v="SC"/><tag k="height" v="300'"/><tag k="postal_code" v="29330"/><tag k="start_date" v="1996"/><tag k="addr:street" v="South Fork Lane"/><tag k="tower:type" v="communication"/></node>
<node id="-13" lat="35.046902208" lon="-82.050792286" visible="true"><tag k="addr:housenumber" v="260"/><tag k="fixme" v=" ** Check before uploading ** "/><tag k="addr:city" v="Inman"/><tag k="man_made" v="mast"/><tag k="addr:state" v="SC"/><tag k="height" v="260'"/><tag k="postal_code" v="29349"/><tag k="start_date" v="1994"/><tag k="addr:street" v="Bryant Road"/><tag k="tower:type" v="communication"/></node>
<node id="-14" lat="35.030516675" lon="-82.037014764" visible="true"><tag k="addr:housenumber" v="9614"/><tag k="fixme" v=" ** Check before uploading ** "/><tag k="addr:city" v="Inman"/><tag k="tower:construction" v="lattice"/><tag k="man_made" v="mast"/><tag k="addr:state" v="SC"/><tag k="height" v="190'"/><tag k="postal_code" v="29349"/><tag k="start_date" v="1997"/><tag k="addr:street" v="Asheville Highway"/><tag k="tower:type" v="communication"/></node>
<node id="-15" lat="35.042281829" lon="-81.954998649" visible="true"><tag k="addr:housenumber" v="150"/><tag k="fixme" v=" ** Check before uploading ** "/><tag k="addr:city" v="Boiling Springs"/><tag k="tower:construction" v="lattice"/><tag k="man_made" v="mast"/><tag k="addr:state" v="SC"/><tag k="height" v="185'"/><tag k="postal_code" v="29316"/><tag k="start_date" v="1995"/><tag k="addr:street" v="Thompson Creek Road"/><tag k="tower:type" v="communication"/></node>
<node id="-16" lat="35.041134256" lon="-81.98242528" visible="true"><tag k="addr:housenumber" v="864"/><tag k="fixme" v=" ** Check before uploading ** "/><tag k="addr:city" v="Boiling Springs"/><tag k="tower:construction" v="monopole"/><tag k="man_made" v="mast"/><tag k="addr:state" v="SC"/><tag k="height" v="180'"/><tag k="postal_code" v="29316"/><tag k="start_date" v="1998"/><tag k="addr:street" v="Double Bridge Road"/><tag k="tower:type" v="communication"/></node>
<node id="-17" lat="35.022467031" lon="-81.933692525" visible="true"><tag k="addr:housenumber" v="1271"/><tag k="fixme" v=" ** Check before uploading ** "/><tag k="addr:city" v="Spartanburg"/><tag k="man_made" v="mast"/><tag k="addr:state" v="SC"/><tag k="height" v="140'"/><tag k="postal_code" v="29303"/><tag k="start_date" v="1992"/><tag k="addr:street" v="Bryant Road"/><tag k="tower:type" v="communication"/></node>
<node id="-18" lat="35.019107777" lon="-82.020948971" visible="true"><tag k="addr:housenumber" v="179"/><tag k="fixme" v=" ** Check before uploading ** "/><tag k="addr:city" v="Boiling Springs"/><tag k="tower:construction" v="guyed"/><tag k="man_made" v="mast"/><tag k="addr:state" v="SC"/><tag k="height" v="250'"/><tag k="postal_code" v="29316"/><tag k="start_date" v="1993"/><tag k="addr:street" v="John Dodd Road"/><tag k="tower:type" v="communication"/></node>
<node id="-19" lat="35.012603606" lon="-81.976821761" visible="true"><tag k="addr:housenumber" v="170"/><tag k="fixme" v=" ** Check before uploading ** "/><tag k="addr:city" v="Spartanburg"/><tag k="tower:construction" v="lattice"/><tag k="man_made" v="mast"/><tag k="addr:state" v="SC"/><tag k="height" v="190'"/><tag k="postal_code" v="29303"/><tag k="start_date" v="1997"/><tag k="addr:street" v="Baby Road"/><tag k="tower:type" v="communication"/></node>
<node id="-20" lat="35.015868064" lon="-81.938182355" visible="true"><tag k="addr:housenumber" v="1203A"/><tag k="fixme" v=" ** Check before uploading ** "/><tag k="addr:city" v="Spartanburg"/><tag k="tower:construction" v="lattice"/><tag k="man_made" v="mast"/><tag k="addr:state" v="SC"/><tag k="height" v="200'"/><tag k="postal_code" v="29303"/><tag k="start_date" v="1996"/><tag k="addr:street" v="Fairview Church Road"/><tag k="tower:type" v="communication"/></node>
<node id="-21" lat="34.992373088" lon="-82.01355414" visible="true"><tag k="addr:housenumber" v="3033"/><tag k="fixme" v=" ** Check before uploading ** "/><tag k="addr:city" v="Spartanburg"/><tag k="man_made" v="mast"/><tag k="addr:state" v="SC"/><tag k="height" v="163'"/><tag k="postal_code" v="29303"/><tag k="start_date" v="1994"/><tag k="addr:street" v="Retha Drive"/><tag k="tower:type" v="communication"/></node>
<node id="-22" lat="35.003511548" lon="-82.01932233" visible="true"><tag k="addr:housenumber" v="430"/><tag k="fixme" v=" ** Check before uploading ** "/><tag k="addr:city" v="Spartanburg"/><tag k="tower:construction" v="monopole"/><tag k="man_made" v="mast"/><tag k="addr:state" v="SC"/><tag k="height" v="165'"/><tag k="postal_code" v="29303"/><tag k="start_date" v="1997"/><tag k="addr:street" v="Monks Grove Church Road"/><tag k="tower:type" v="communication"/></node>
<node id="-23" lat="34.99579932" lon="-81.985690162" visible="true"><tag k="addr:housenumber" v="291"/><tag k="fixme" v=" ** Check before uploading ** "/><tag k="addr:city" v="Spartanburg"/><tag k="tower:construction" v="lattice"/><tag k="man_made" v="mast"/><tag k="addr:state" v="SC"/><tag k="height" v="260'"/><tag k="postal_code" v="29303"/><tag k="start_date" v="1998"/><tag k="addr:street" v="Access Road"/><tag k="tower:type" v="communication"/></node>
<node id="-24" lat="35.04007394" lon="-81.823211278" visible="true"><tag k="addr:housenumber" v="335"/><tag k="fixme" v=" ** Check before uploading ** "/><tag k="addr:city" v="Cowpens"/><tag k="tower:construction" v="guyed"/><tag k="man_made" v="mast"/><tag k="addr:state" v="SC"/><tag k="height" v="300'"/><tag k="postal_code" v="29330"/><tag k="start_date" v="1995"/><tag k="addr:street" v="Bud Arthur Bridge Road"/><tag k="tower:type" v="communication"/></node>
<node id="-25" lat="35.015083942" lon="-81.877874022" visible="true"><tag k="addr:housenumber" v="199"/><tag k="fixme" v=" ** Check before uploading ** "/><tag k="addr:city" v="Spartanburg"/><tag k="tower:construction" v="lattice"/><tag k="man_made" v="mast"/><tag k="addr:state" v="SC"/><tag k="height" v="260'"/><tag k="postal_code" v="29302"/><tag k="start_date" v="1999"/><tag k="addr:street" v="Ben Abi Road"/><tag k="tower:type" v="communication"/></node>
<node id="-26" lat="35.010502377" lon="-81.869079204" visible="true"><tag k="addr:housenumber" v="151"/><tag k="fixme" v=" ** Check before uploading ** "/><tag k="addr:city" v="Spartanburg"/><tag k="tower:construction" v="lattice"/><tag k="man_made" v="mast"/><tag k="addr:state" v="SC"/><tag k="height" v="250'"/><tag k="postal_code" v="29307"/><tag k="addr:street" v="Bennett Dairy Road"/><tag k="tower:type" v="communication"/></node>
<node id="-27" lat="35.012995086" lon="-81.869041433" visible="true"><tag k="addr:housenumber" v="251"/><tag k="fixme" v=" ** Check before uploading ** "/><tag k="addr:city" v="Spartanburg"/><tag k="man_made" v="mast"/><tag k="addr:state" v="SC"/><tag k="height" v="250'"/><tag k="postal_code" v="29307"/><tag k="addr:street" v="Bennett Dairy Road"/><tag k="tower:type" v="communication"/></node>
<node id="-28" lat="35.00742259" lon="-81.814234546" visible="true"><tag k="addr:housenumber" v="4973"/><tag k="fixme" v=" ** Check before uploading ** "/><tag k="addr:city" v="Cowpens"/><tag k="tower:construction" v="lattice"/><tag k="man_made" v="mast"/><tag k="addr:state" v="SC"/><tag k="height" v="180'"/><tag k="postal_code" v="29330"/><tag k="start_date" v="1998"/><tag k="addr:street" v="South Main Street"/><tag k="tower:type" v="communication"/></node>
<node id="-29" lat="34.984862922" lon="-81.877452934" visible="true"><tag k="addr:housenumber" v="507"/><tag k="fixme" v=" ** Check before uploading ** "/><tag k="addr:city" v="Spartanburg"/><tag k="tower:construction" v="lattice"/><tag k="man_made" v="mast"/><tag k="addr:state" v="SC"/><tag k="height" v="163'"/><tag k="postal_code" v="29302"/><tag k="start_date" v="1993"/><tag k="addr:street" v="Plainview Drive"/><tag k="tower:type" v="communication"/></node>
<node id="-30" lat="34.95934955" lon="-81.809155175" visible="true"><tag k="addr:housenumber" v="1130"/><tag k="fixme" v=" ** Check before uploading ** "/><tag k="addr:city" v="Spartanburg"/><tag k="tower:construction" v="lattice"/><tag k="man_made" v="mast"/><tag k="addr:state" v="SC"/><tag k="height" v="195'"/><tag k="postal_code" v="29302"/><tag k="start_date" v="1999"/><tag k="addr:street" v="Goldmine Road"/><tag k="tower:type" v="communication"/></node>
<node id="-31" lat="34.88932782" lon="-81.749875644" visible="true"><tag k="addr:housenumber" v="7478"/><tag k="fixme" v=" ** Check before uploading ** "/><tag k="addr:city" v="Pacolet"/><tag k="tower:construction" v="lattice"/><tag k="man_made" v="mast"/><tag k="addr:state" v="SC"/><tag k="height" v="190'"/><tag k="postal_code" v="29372"/><tag k="start_date" v="1999"/><tag k="addr:street" v="South Pine Street"/><tag k="tower:type" v="communication"/></node>
<node id="-32" lat="34.909100099" lon="-81.822767513" visible="true"><tag k="addr:housenumber" v="409"/><tag k="fixme" v=" ** Check before uploading ** "/><tag k="addr:city" v="Spartanburg"/><tag k="tower:construction" v="guyed"/><tag k="man_made" v="mast"/><tag k="addr:state" v="SC"/><tag k="height" v="275'"/><tag k="postal_code" v="29302"/><tag k="start_date" v="1995"/><tag k="addr:street" v="Petrie Drive"/><tag k="tower:type" v="communication"/></node>
<node id="-33" lat="34.830666037" lon="-82.150433471" visible="true"><tag k="addr:housenumber" v="945"/><tag k="fixme" v=" ** Check before uploading ** "/><tag k="addr:city" v="Greer"/><tag k="man_made" v="mast"/><tag k="addr:state" v="SC"/><tag k="postal_code" v="29651"/><tag k="addr:street" v="Brockman Road"/><tag k="tower:type" v="communication"/></node>
<node id="-34" lat="34.83578538" lon="-82.069684413" visible="true"><tag k="addr:housenumber" v="1585"/><tag k="fixme" v=" ** Check before uploading ** "/><tag k="addr:city" v="Woodruff"/><tag k="tower:construction" v="guyed"/><tag k="man_made" v="mast"/><tag k="addr:state" v="SC"/><tag k="height" v="300'"/><tag k="postal_code" v="29388"/><tag k="start_date" v="1999"/><tag k="addr:street" v="Highway 417"/><tag k="tower:type" v="communication"/></node>
<node id="-35" lat="34.801328357" lon="-82.132357944" visible="true"><tag k="addr:housenumber" v="775"/><tag k="fixme" v=" ** Check before uploading ** "/><tag k="addr:city" v="Woodruff"/><tag k="tower:construction" v="lattice"/><tag k="man_made" v="mast"/><tag k="addr:state" v="SC"/><tag k="height" v="200'"/><tag k="postal_code" v="29388"/><tag k="start_date" v="1997"/><tag k="addr:street" v="Workman Road"/><tag k="tower:type" v="communication"/></node>
<node id="-36" lat="34.794225399" lon="-82.044357847" visible="true"><tag k="addr:housenumber" v="724"/><tag k="fixme" v=" ** Check before uploading ** "/><tag k="addr:city" v="Woodruff"/><tag k="tower:construction" v="guyed"/><tag k="man_made" v="mast"/><tag k="addr:state" v="SC"/><tag k="height" v="250'"/><tag k="postal_code" v="29388"/><tag k="start_date" v="1999"/><tag k="addr:street" v="Waddell Road"/><tag k="tower:type" v="communication"/></node>
<node id="-37" lat="34.806936097" lon="-82.01881202" visible="true"><tag k="addr:housenumber" v="3106"/><tag k="fixme" v=" ** Check before uploading ** "/><tag k="addr:city" v="Moore"/><tag k="tower:construction" v="monopole"/><tag k="man_made" v="mast"/><tag k="addr:state" v="SC"/><tag k="height" v="180'"/><tag k="postal_code" v="29369"/><tag k="start_date" v="1998"/><tag k="addr:street" v="Old Spartanburg Highway"/><tag k="tower:type" v="communication"/></node>
<node id="-38" lat="34.79090823" lon="-82.020695753" visible="true"><tag k="addr:housenumber" v="8481"/><tag k="fixme" v=" ** Check before uploading ** "/><tag k="addr:city" v="Woodruff"/><tag k="tower:construction" v="lattice"/><tag k="man_made" v="mast"/><tag k="addr:state" v="SC"/><tag k="height" v="230'"/><tag k="postal_code" v="29388"/><tag k="start_date" v="1999"/><tag k="addr:street" v="Highway 221"/><tag k="tower:type" v="communication"/></node>
<node id="-39" lat="34.74904021" lon="-82.04672937" visible="true"><tag k="addr:housenumber" v="804"/><tag k="fixme" v=" ** Check before uploading ** "/><tag k="addr:city" v="Woodruff"/><tag k="man_made" v="mast"/><tag k="addr:state" v="SC"/><tag k="postal_code" v="29388"/><tag k="addr:street" v="North Main Street"/><tag k="tower:type" v="communication"/></node>
<node id="-40" lat="34.749206251" lon="-81.95010254" visible="true"><tag k="addr:housenumber" v="4050"/><tag k="fixme" v=" ** Check before uploading ** "/><tag k="addr:city" v="Roebuck"/><tag k="man_made" v="mast"/><tag k="addr:state" v="SC"/><tag k="height" v="300'"/><tag k="postal_code" v="29376"/><tag k="start_date" v="1998"/><tag k="addr:street" v="Walnut Grove Road"/><tag k="tower:type" v="communication"/></node>
<node id="-41" lat="34.701025579" lon="-81.947034628" visible="true"><tag k="addr:housenumber" v="3435"/><tag k="fixme" v=" ** Check before uploading ** "/><tag k="addr:city" v="Enoree"/><tag k="tower:construction" v="guyed"/><tag k="man_made" v="mast"/><tag k="addr:state" v="SC"/><tag k="height" v="300'"/><tag k="postal_code" v="29335"/><tag k="start_date" v="1996"/><tag k="addr:street" v="Cross Anchor Road"/><tag k="tower:type" v="communication"/></node>
<node id="-42" lat="34.702986422" lon="-81.939567175" visible="true"><tag k="addr:housenumber" v="151"/><tag k="fixme" v=" ** Check before uploading ** "/><tag k="addr:city" v="Enoree"/><tag k="man_made" v="mast"/><tag k="addr:state" v="SC"/><tag k="height" v="250'"/><tag k="postal_code" v="29335"/><tag k="start_date" v="1992"/><tag k="addr:street" v="Chumley Road"/><tag k="tower:type" v="communication"/></node>
<node id="-43" lat="34.662858983" lon="-81.938741831" visible="true"><tag k="addr:housenumber" v="1899"/><tag k="fixme" v=" ** Check before uploading ** "/><tag k="addr:city" v="Enoree"/><tag k="man_made" v="mast"/><tag k="addr:state" v="SC"/><tag k="height" v="160'"/><tag k="postal_code" v="29335"/><tag k="start_date" v="1995"/><tag k="addr:street" v="Highway 92"/><tag k="tower:type" v="communication"/></node>
<node id="-44" lat="34.659615252" lon="-81.92004623" visible="true"><tag k="addr:housenumber" v="2080"/><tag k="fixme" v=" ** Check before uploading ** "/><tag k="addr:city" v="Enoree"/><tag k="tower:construction" v="lattice"/><tag k="man_made" v="mast"/><tag k="addr:state" v="SC"/><tag k="height" v="250'"/><tag k="postal_code" v="29335"/><tag k="start_date" v="1998"/><tag k="addr:street" v="Browning Road"/><tag k="tower:type" v="communication"/></node>
<node id="-45" lat="34.655032485" lon="-81.923254433" visible="true"><tag k="fixme" v=" ** Check before uploading ** "/><tag k="addr:city" v="Enoree"/><tag k="tower:construction" v="guyed"/><tag k="man_made" v="mast"/><tag k="addr:state" v="SC"/><tag k="height" v="250'"/><tag k="postal_code" v="29335"/><tag k="start_date" v="1995"/><tag k="addr:street" v="Ridge Road"/><tag k="tower:type" v="communication"/></node>
<node id="-46" lat="34.600612361" lon="-81.884759988" visible="true"><tag k="addr:housenumber" v="1601"/><tag k="fixme" v=" ** Check before uploading ** "/><tag k="addr:city" v="Enoree"/><tag k="tower:construction" v="lattice"/><tag k="man_made" v="mast"/><tag k="addr:state" v="SC"/><tag k="height" v="225'"/><tag k="postal_code" v="29335"/><tag k="start_date" v="1996"/><tag k="addr:street" v="Horseshoe Falls Road"/><tag k="tower:type" v="communication"/></node>
<node id="-47" lat="34.98487884" lon="-82.116271425" visible="true"><tag k="addr:housenumber" v="292"/><tag k="fixme" v=" ** Check before uploading ** "/><tag k="addr:city" v="Wellford"/><tag k="tower:construction" v="lattice"/><tag k="man_made" v="mast"/><tag k="addr:state" v="SC"/><tag k="height" v="250'"/><tag k="postal_code" v="29385"/><tag k="start_date" v="1998"/><tag k="addr:street" v="Halfmoon Road"/><tag k="tower:type" v="communication"/></node>
<node id="-48" lat="34.958405668" lon="-82.157431593" visible="true"><tag k="addr:housenumber" v="425"/><tag k="fixme" v=" ** Check before uploading ** "/><tag k="addr:city" v="Duncan"/><tag k="man_made" v="mast"/><tag k="addr:state" v="SC"/><tag k="postal_code" v="29334"/><tag k="addr:street" v="Edwards Road"/><tag k="tower:type" v="communication"/></node>
<node id="-49" lat="34.954026104" lon="-82.153781664" visible="true"><tag k="addr:housenumber" v="510"/><tag k="fixme" v=" ** Check before uploading ** "/><tag k="addr:city" v="Duncan"/><tag k="man_made" v="mast"/><tag k="addr:state" v="SC"/><tag k="postal_code" v="29334"/><tag k="addr:street" v="Gap Creek Road"/><tag k="tower:type" v="communication"/></node>
<node id="-50" lat="34.954167635" lon="-82.143646541" visible="true"><tag k="addr:housenumber" v="310"/><tag k="fixme" v=" ** Check before uploading ** "/><tag k="addr:city" v="Duncan"/><tag k="man_made" v="water_tower"/><tag k="addr:state" v="SC"/><tag k="height" v="100'"/><tag k="postal_code" v="29334"/><tag k="start_date" v="1997"/><tag k="addr:street" v="Pine Ridge Road"/></node>
<node id="-51" lat="34.9571106" lon="-82.123055555" visible="true"><tag k="addr:housenumber" v="217"/><tag k="fixme" v=" ** Check before uploading ** "/><tag k="addr:city" v="Lyman"/><tag k="man_made" v="mast"/><tag k="addr:state" v="SC"/><tag k="postal_code" v="29365"/><tag k="addr:street" v="Harvard Court"/><tag k="tower:type" v="communication"/></node>
<node id="-52" lat="34.94191446" lon="-82.101213166" visible="true"><tag k="addr:housenumber" v="575"/><tag k="fixme" v=" ** Check before uploading ** "/><tag k="addr:city" v="Wellford"/><tag k="tower:construction" v="guyed"/><tag k="man_made" v="mast"/><tag k="addr:state" v="SC"/><tag k="height" v="400'"/><tag k="postal_code" v="29385"/><tag k="addr:street" v="Old Spartanburg Highway"/><tag k="tower:type" v="communication"/></node>
<node id="-53" lat="34.932781377" lon="-82.082427705" visible="true"><tag k="addr:housenumber" v="2620"/><tag k="fixme" v=" ** Check before uploading ** "/><tag k="addr:city" v="Wellford"/><tag k="man_made" v="mast"/><tag k="addr:state" v="SC"/><tag k="height" v="190'"/><tag k="postal_code" v="29385"/><tag k="start_date" v="1993"/><tag k="addr:street" v="Nazareth Road"/><tag k="tower:type" v="communication"/></node>
<node id="-54" lat="34.932982425" lon="-82.074209436" visible="true"><tag k="addr:housenumber" v="230"/><tag k="fixme" v=" ** Check before uploading ** "/><tag k="addr:city" v="Wellford"/><tag k="man_made" v="mast"/><tag k="addr:state" v="SC"/><tag k="height" v="300'"/><tag k="postal_code" v="29385"/><tag k="start_date" v="1994"/><tag k="addr:street" v="New Hope Road"/><tag k="tower:type" v="communication"/></node>
<node id="-55" lat="34.902105699" lon="-82.198142931" visible="true"><tag k="addr:housenumber" v="451"/><tag k="fixme" v=" ** Check before uploading ** "/><tag k="addr:city" v="Greer"/><tag k="man_made" v="mast"/><tag k="addr:state" v="SC"/><tag k="postal_code" v="29651"/><tag k="addr:street" v="Aviation Drive"/><tag k="tower:type" v="communication"/></node>
<node id="-56" lat="34.903780893" lon="-82.182804879" visible="true"><tag k="addr:housenumber" v="825"/><tag k="fixme" v=" ** Check before uploading ** "/><tag k="addr:city" v="Greer"/><tag k="man_made" v="mast"/><tag k="addr:state" v="SC"/><tag k="height" v="133'"/><tag k="postal_code" v="29651"/><tag k="start_date" v="1996"/><tag k="addr:street" v="Victor Hill Road"/><tag k="tower:type" v="communication"/></node>
<node id="-57" lat="34.897895763" lon="-82.160020651" visible="true"><tag k="addr:housenumber" v="1511"/><tag k="fixme" v=" ** Check before uploading ** "/><tag k="addr:city" v="Greer"/><tag k="man_made" v="mast"/><tag k="addr:state" v="SC"/><tag k="postal_code" v="29651"/><tag k="addr:street" v="Highway 101 South"/><tag k="tower:type" v="communication"/></node>
<node id="-58" lat="34.899319541" lon="-82.132089113" visible="true"><tag k="addr:housenumber" v="230"/><tag k="fixme" v=" ** Check before uploading ** "/><tag k="addr:city" v="Duncan"/><tag k="tower:construction" v="lattice"/><tag k="man_made" v="mast"/><tag k="addr:state" v="SC"/><tag k="height" v="64'"/><tag k="postal_code" v="29334"/><tag k="start_date" v="1997"/><tag k="addr:street" v="East Victor Hill Road"/><tag k="tower:type" v="communication"/></node>
<node id="-59" lat="34.911869537" lon="-82.104175139" visible="true"><tag k="addr:housenumber" v="1517A"/><tag k="fixme" v=" ** Check before uploading ** "/><tag k="addr:city" v="Duncan"/><tag k="tower:construction" v="lattice"/><tag k="man_made" v="mast"/><tag k="addr:state" v="SC"/><tag k="height" v="260'"/><tag k="postal_code" v="29334"/><tag k="start_date" v="1998"/><tag k="addr:street" v="East Main Street"/><tag k="tower:type" v="communication"/></node>
<node id="-60" lat="34.900946075" lon="-82.08504171" visible="true"><tag k="addr:housenumber" v="700"/><tag k="fixme" v=" ** Check before uploading ** "/><tag k="addr:city" v="Duncan"/><tag k="man_made" v="mast"/><tag k="addr:state" v="SC"/><tag k="postal_code" v="29334"/><tag k="addr:street" v="River Ridge Road"/><tag k="tower:type" v="communication"/></node>
<node id="-61" lat="34.878702367" lon="-82.197526392" visible="true"><tag k="addr:housenumber" v="750"/><tag k="fixme" v=" ** Check before uploading ** "/><tag k="addr:city" v="Greer"/><tag k="man_made" v="mast"/><tag k="addr:state" v="SC"/><tag k="postal_code" v="29651"/><tag k="addr:street" v="Brockman Mcclimon Road"/><tag k="tower:type" v="communication"/></node>
<node id="-62" lat="34.874574889" lon="-82.183687729" visible="true"><tag k="fixme" v=" ** Check before uploading ** "/><tag k="addr:city" v="Greer"/><tag k="tower:construction" v="lattice"/><tag k="man_made" v="mast"/><tag k="addr:state" v="SC"/><tag k="height" v="215'"/><tag k="postal_code" v="29651"/><tag k="addr:street" v="Abner Creek Road"/><tag k="tower:type" v="communication"/></node>
<node id="-63" lat="34.881487132" lon="-82.145534392" visible="true"><tag k="addr:housenumber" v="125"/><tag k="fixme" v=" ** Check before uploading ** "/><tag k="addr:city" v="Duncan"/><tag k="man_made" v="mast"/><tag k="addr:state" v="SC"/><tag k="postal_code" v="29334"/><tag k="addr:street" v="Apple Valley Road"/><tag k="tower:type" v="communication"/></node>
<node id="-64" lat="34.875939202" lon="-82.126255932" visible="true"><tag k="fixme" v=" ** Check before uploading ** "/><tag k="addr:city" v="Duncan"/><tag k="man_made" v="mast"/><tag k="addr:state" v="SC"/><tag k="height" v="250'"/><tag k="postal_code" v="29334"/><tag k="start_date" v="1994"/><tag k="addr:street" v="Berry Shoals Road"/><tag k="tower:type" v="communication"/></node>
<node id="-65" lat="34.892882955" lon="-82.045283267" visible="true"><tag k="addr:housenumber" v="155"/><tag k="fixme" v=" ** Check before uploading ** "/><tag k="addr:city" v="Moore"/><tag k="tower:construction" v="lattice"/><tag k="man_made" v="mast"/><tag k="addr:state" v="SC"/><tag k="height" v="225'"/><tag k="postal_code" v="29369"/><tag k="start_date" v="1995"/><tag k="addr:street" v="Hollified Lane"/><tag k="tower:type" v="communication"/></node>
<node id="-66" lat="34.853513925" lon="-82.181690185" visible="true"><tag k="addr:housenumber" v="640"/><tag k="fixme" v=" ** Check before uploading ** "/><tag k="addr:city" v="Greer"/><tag k="man_made" v="mast"/><tag k="addr:state" v="SC"/><tag k="height" v="250'"/><tag k="postal_code" v="29651"/><tag k="start_date" v="1994"/><tag k="addr:street" v="Babewood Road"/><tag k="tower:type" v="communication"/></node>
<node id="-67" lat="34.873611757" lon="-82.126943059" visible="true"><tag k="addr:housenumber" v="1710"/><tag k="fixme" v=" ** Check before uploading ** "/><tag k="addr:city" v="Duncan"/><tag k="man_made" v="mast"/><tag k="addr:state" v="SC"/><tag k="postal_code" v="29334"/><tag k="addr:street" v="Duncan Reidville Road"/><tag k="tower:type" v="communication"/></node>
<node id="-68" lat="34.866532494" lon="-82.050741541" visible="true"><tag k="addr:housenumber" v="644"/><tag k="fixme" v=" ** Check before uploading ** "/><tag k="addr:city" v="Moore"/><tag k="tower:construction" v="lattice"/><tag k="man_made" v="mast"/><tag k="addr:state" v="SC"/><tag k="height" v="275'"/><tag k="postal_code" v="29369"/><tag k="start_date" v="1998"/><tag k="addr:street" v="Bethany Church Road"/><tag k="tower:type" v="communication"/></node>
<node id="-69" lat="34.843646354" lon="-82.166855237" visible="true"><tag k="addr:housenumber" v="740"/><tag k="fixme" v=" ** Check before uploading ** "/><tag k="addr:city" v="Greer"/><tag k="tower:construction" v="lattice"/><tag k="man_made" v="mast"/><tag k="addr:state" v="SC"/><tag k="height" v="250'"/><tag k="postal_code" v="29651"/><tag k="start_date" v="1998"/><tag k="addr:street" v="Burns Road"/><tag k="tower:type" v="communication"/></node>
<node id="-70" lat="34.845669915" lon="-82.097077571" visible="true"><tag k="addr:housenumber" v="401"/><tag k="fixme" v=" ** Check before uploading ** "/><tag k="addr:city" v="Woodruff"/><tag k="man_made" v="mast"/><tag k="addr:state" v="SC"/><tag k="postal_code" v="29388"/><tag k="addr:street" v="Cunningham Road"/><tag k="tower:type" v="communication"/></node>
<node id="-71" lat="34.970102346" lon="-82.051397902" visible="true"><tag k="fixme" v=" ** Check before uploading ** "/><tag k="addr:street" v="Mt Zion Road"/><tag k="man_made" v="mast"/><tag k="start_date" v="1994"/><tag k="height" v="193'"/><tag k="tower:type" v="communication"/></node>
<node id="-72" lat="34.964300168" lon="-82.052673362" visible="true"><tag k="addr:housenumber" v="125"/><tag k="fixme" v=" ** Check before uploading ** "/><tag k="addr:city" v="Wellford"/><tag k="man_made" v="mast"/><tag k="addr:state" v="SC"/><tag k="height" v="250'"/><tag k="postal_code" v="29385"/><tag k="start_date" v="1994"/><tag k="addr:street" v="Fort Prince Road"/><tag k="tower:type" v="communication"/></node>
<node id="-73" lat="34.96520031" lon="-82.022301777" visible="true"><tag k="addr:housenumber" v="5209"/><tag k="fixme" v=" ** Check before uploading ** "/><tag k="addr:city" v="Spartanburg"/><tag k="tower:construction" v="lattice"/><tag k="man_made" v="mast"/><tag k="addr:state" v="SC"/><tag k="height" v="195'"/><tag k="postal_code" v="29303"/><tag k="start_date" v="1999"/><tag k="addr:street" v="College Drive"/><tag k="tower:type" v="communication"/></node>
<node id="-74" lat="34.975329759" lon="-81.994370241" visible="true"><tag k="addr:housenumber" v="8780"/><tag k="fixme" v=" ** Check before uploading ** "/><tag k="addr:city" v="Spartanburg"/><tag k="tower:construction" v="lattice"/><tag k="man_made" v="mast"/><tag k="addr:state" v="SC"/><tag k="height" v="400'"/><tag k="postal_code" v="29303"/><tag k="start_date" v="1996"/><tag k="addr:street" v="Fairforest Road"/><tag k="tower:type" v="communication"/></node>
<node id="-75" lat="34.982306901" lon="-81.958363443" visible="true"><tag k="addr:housenumber" v="417"/><tag k="fixme" v=" ** Check before uploading ** "/><tag k="addr:city" v="Spartanburg"/><tag k="tower:construction" v="monopole"/><tag k="man_made" v="mast"/><tag k="addr:state" v="SC"/><tag k="height" v="165'"/><tag k="postal_code" v="29303"/><tag k="start_date" v="1997"/><tag k="addr:street" v="Graham Road"/><tag k="tower:type" v="communication"/></node>
<node id="-76" lat="34.968692494" lon="-81.9799341" visible="true"><tag k="addr:housenumber" v="440"/><tag k="fixme" v=" ** Check before uploading ** "/><tag k="addr:city" v="Spartanburg"/><tag k="tower:construction" v="lattice"/><tag k="man_made" v="mast"/><tag k="addr:state" v="SC"/><tag k="height" v="200'"/><tag k="postal_code" v="29301"/><tag k="addr:street" v="Old Greenville Highway"/><tag k="tower:type" v="communication"/></node>
<node id="-77" lat="34.942761748" lon="-82.008748202" visible="true"><tag k="addr:housenumber" v="1441"/><tag k="fixme" v=" ** Check before uploading ** "/><tag k="addr:city" v="Spartanburg"/><tag k="man_made" v="mast"/><tag k="addr:state" v="SC"/><tag k="postal_code" v="29301"/><tag k="start_date" v="1992"/><tag k="addr:street" v="Shoresbrook Drive"/><tag k="tower:type" v="communication"/></node>
<node id="-78" lat="34.944324772" lon="-82.008950619" visible="true"><tag k="addr:housenumber" v="3001A"/><tag k="fixme" v=" ** Check before uploading ** "/><tag k="addr:city" v="Spartanburg"/><tag k="tower:construction" v="monopole"/><tag k="man_made" v="mast"/><tag k="addr:state" v="SC"/><tag k="height" v="165'"/><tag k="postal_code" v="29301"/><tag k="start_date" v="1996"/><tag k="addr:street" v="North Blackstock Road"/><tag k="tower:type" v="communication"/></node>
<node id="-79" lat="34.962258218" lon="-81.99432648" visible="true"><tag k="addr:housenumber" v="35"/><tag k="fixme" v=" ** Check before uploading ** "/><tag k="addr:city" v="Arcadia"/><tag k="tower:construction" v="monopole"/><tag k="man_made" v="mast"/><tag k="addr:state" v="SC"/><tag k="height" v="165'"/><tag k="postal_code" v="29320"/><tag k="start_date" v="1996"/><tag k="addr:street" v="Henry Street"/><tag k="tower:type" v="communication"/></node>
<node id="-80" lat="34.948631793" lon="-81.995640686" visible="true"><tag k="addr:housenumber" v="626"/><tag k="fixme" v=" ** Check before uploading ** "/><tag k="addr:city" v="Spartanburg"/><tag k="tower:construction" v="lattice"/><tag k="man_made" v="mast"/><tag k="addr:state" v="SC"/><tag k="height" v="195'"/><tag k="postal_code" v="29301"/><tag k="start_date" v="1999"/><tag k="addr:street" v="West Blackstock Road"/><tag k="tower:type" v="communication"/></node>
<node id="-81" lat="34.958915779" lon="-81.979661419" visible="true"><tag k="addr:housenumber" v="711"/><tag k="fixme" v=" ** Check before uploading ** "/><tag k="addr:city" v="Spartanburg"/><tag k="man_made" v="mast"/><tag k="addr:state" v="SC"/><tag k="height" v="160'"/><tag k="postal_code" v="29301"/><tag k="start_date" v="1994"/><tag k="addr:street" v="Ethel Road"/><tag k="tower:type" v="communication"/></node>
<node id="-82" lat="34.935626622" lon="-82.031642784" visible="true"><tag k="addr:housenumber" v="145"/><tag k="fixme" v=" ** Check before uploading ** "/><tag k="addr:city" v="Spartanburg"/><tag k="tower:construction" v="lattice"/><tag k="man_made" v="mast"/><tag k="addr:state" v="SC"/><tag k="height" v="220'"/><tag k="postal_code" v="29301"/><tag k="start_date" v="1999"/><tag k="addr:street" v="Tradd Street"/><tag k="tower:type" v="communication"/></node>
<node id="-83" lat="34.916013854" lon="-81.993120685" visible="true"><tag k="addr:housenumber" v="100"/><tag k="fixme" v=" ** Check before uploading ** "/><tag k="addr:city" v="Spartanburg"/><tag k="tower:construction" v="monopole"/><tag k="man_made" v="mast"/><tag k="addr:state" v="SC"/><tag k="height" v="150'"/><tag k="postal_code" v="29301"/><tag k="start_date" v="1993"/><tag k="addr:street" v="Heath Lane"/><tag k="tower:type" v="communication"/></node>
<node id="-84" lat="34.917746413" lon="-81.988397172" visible="true"><tag k="addr:housenumber" v="350A"/><tag k="fixme" v=" ** Check before uploading ** "/><tag k="addr:city" v="Spartanburg"/><tag k="tower:construction" v="monopole"/><tag k="man_made" v="mast"/><tag k="addr:state" v="SC"/><tag k="height" v="110'"/><tag k="postal_code" v="29301"/><tag k="start_date" v="1996"/><tag k="addr:street" v="East Blackstock Road"/><tag k="tower:type" v="communication"/></node>
<node id="-85" lat="34.906437107" lon="-81.985213946" visible="true"><tag k="addr:housenumber" v="1110"/><tag k="fixme" v=" ** Check before uploading ** "/><tag k="addr:city" v="Moore"/><tag k="man_made" v="mast"/><tag k="addr:state" v="SC"/><tag k="postal_code" v="29369"/><tag k="addr:street" v="Old Anderson Mill Road"/><tag k="tower:type" v="communication"/></node>
<node id="-86" lat="34.897894888" lon="-81.984275313" visible="true"><tag k="addr:housenumber" v="125"/><tag k="fixme" v=" ** Check before uploading ** "/><tag k="addr:city" v="Moore"/><tag k="tower:construction" v="lattice"/><tag k="man_made" v="mast"/><tag k="addr:state" v="SC"/><tag k="height" v="150'"/><tag k="postal_code" v="29369"/><tag k="start_date" v="1996"/><tag k="addr:street" v="Bethlehem Church Road"/><tag k="tower:type" v="communication"/></node>
<node id="-87" lat="34.909445085" lon="-81.949845055" visible="true"><tag k="addr:housenumber" v="631"/><tag k="fixme" v=" ** Check before uploading ** "/><tag k="addr:city" v="Roebuck"/><tag k="tower:construction" v="lattice"/><tag k="man_made" v="mast"/><tag k="addr:state" v="SC"/><tag k="height" v="160'"/><tag k="postal_code" v="29376"/><tag k="start_date" v="1995"/><tag k="addr:street" v="Southport Road"/><tag k="tower:type" v="communication"/></node>
<node id="-88" lat="34.889618896" lon="-81.992082136" visible="true"><tag k="addr:housenumber" v="319"/><tag k="fixme" v=" ** Check before uploading ** "/><tag k="addr:city" v="Moore"/><tag k="tower:construction" v="monopole"/><tag k="man_made" v="mast"/><tag k="addr:state" v="SC"/><tag k="height" v="180'"/><tag k="postal_code" v="29369"/><tag k="start_date" v="1998"/><tag k="addr:street" v="Westside Road"/><tag k="tower:type" v="communication"/></node>
<node id="-89" lat="34.893883359" lon="-81.955585165" visible="true"><tag k="addr:housenumber" v="1485"/><tag k="fixme" v=" ** Check before uploading ** "/><tag k="addr:city" v="Roebuck"/><tag k="tower:construction" v="lattice"/><tag k="man_made" v="mast"/><tag k="addr:state" v="SC"/><tag k="height" v="180'"/><tag k="postal_code" v="29376"/><tag k="start_date" v="1998"/><tag k="addr:street" v="Old Georgia Road"/><tag k="tower:type" v="communication"/></node>
<node id="-90" lat="34.896804497" lon="-81.938066699" visible="true"><tag k="addr:housenumber" v="888"/><tag k="fixme" v=" ** Check before uploading ** "/><tag k="addr:city" v="Roebuck"/><tag k="tower:construction" v="lattice"/><tag k="man_made" v="mast"/><tag k="addr:state" v="SC"/><tag k="height" v="180'"/><tag k="postal_code" v="29376"/><tag k="start_date" v="1995"/><tag k="addr:street" v="Canaan Road"/><tag k="tower:type" v="communication"/></node>
<node id="-91" lat="34.879179257" lon="-81.930051748" visible="true"><tag k="addr:housenumber" v="2727"/><tag k="fixme" v=" ** Check before uploading ** "/><tag k="addr:city" v="Spartanburg"/><tag k="tower:construction" v="guyed"/><tag k="man_made" v="mast"/><tag k="addr:state" v="SC"/><tag k="height" v="250'"/><tag k="postal_code" v="29301"/><tag k="start_date" v="1999"/><tag k="addr:street" v="Carolina Country Club Road"/><tag k="tower:type" v="communication"/></node>
<node id="-92" lat="34.864687744" lon="-81.969471642" visible="true"><tag k="addr:housenumber" v="164"/><tag k="fixme" v=" ** Check before uploading ** "/><tag k="addr:city" v="Roebuck"/><tag k="tower:construction" v="lattice"/><tag k="man_made" v="mast"/><tag k="addr:state" v="SC"/><tag k="height" v="260'"/><tag k="postal_code" v="29376"/><tag k="start_date" v="1998"/><tag k="addr:street" v="Bulman Road"/><tag k="tower:type" v="communication"/></node>
<node id="-93" lat="34.8580144" lon="-81.912928548" visible="true"><tag k="addr:housenumber" v="199A"/><tag k="fixme" v=" ** Check before uploading ** "/><tag k="addr:city" v="Spartanburg"/><tag k="tower:construction" v="guyed"/><tag k="man_made" v="mast"/><tag k="addr:state" v="SC"/><tag k="height" v="400'"/><tag k="postal_code" v="29301"/><tag k="start_date" v="1998"/><tag k="addr:street" v="Gowens Road"/><tag k="tower:type" v="communication"/></node>
<node id="-94" lat="34.837924009" lon="-81.973764447" visible="true"><tag k="addr:housenumber" v="6304"/><tag k="fixme" v=" ** Check before uploading ** "/><tag k="addr:city" v="Roebuck"/><tag k="tower:construction" v="monopole"/><tag k="man_made" v="mast"/><tag k="addr:state" v="SC"/><tag k="height" v="180'"/><tag k="postal_code" v="29376"/><tag k="start_date" v="1998"/><tag k="addr:street" v="Highway 221"/><tag k="tower:type" v="communication"/></node>
<node id="-95" lat="34.844121852" lon="-81.964865499" visible="true"><tag k="addr:housenumber" v="159"/><tag k="fixme" v=" ** Check before uploading ** "/><tag k="addr:city" v="Roebuck"/><tag k="man_made" v="mast"/><tag k="addr:state" v="SC"/><tag k="postal_code" v="29376"/><tag k="addr:street" v="Felt Drive"/><tag k="tower:type" v="communication"/></node>
<node id="-96" lat="34.820952503" lon="-81.976599235" visible="true"><tag k="addr:housenumber" v="215"/><tag k="fixme" v=" ** Check before uploading ** "/><tag k="addr:city" v="Roebuck"/><tag k="tower:construction" v="lattice"/><tag k="man_made" v="mast"/><tag k="addr:state" v="SC"/><tag k="height" v="200'"/><tag k="postal_code" v="29376"/><tag k="start_date" v="1997"/><tag k="addr:street" v="Piedmont Dairy Road"/><tag k="tower:type" v="communication"/></node>
<node id="-97" lat="34.800260434" lon="-81.969383665" visible="true"><tag k="addr:housenumber" v="155"/><tag k="fixme" v=" ** Check before uploading ** "/><tag k="addr:city" v="Roebuck"/><tag k="tower:construction" v="lattice"/><tag k="man_made" v="mast"/><tag k="addr:state" v="SC"/><tag k="height" v="250'"/><tag k="postal_code" v="29376"/><tag k="start_date" v="1998"/><tag k="addr:street" v="Johnson Lane"/><tag k="tower:type" v="communication"/></node>
<node id="-98" lat="34.806334125" lon="-81.945770943" visible="true"><tag k="addr:housenumber" v="110"/><tag k="fixme" v=" ** Check before uploading ** "/><tag k="addr:city" v="Roebuck"/><tag k="tower:construction" v="guyed"/><tag k="man_made" v="mast"/><tag k="addr:state" v="SC"/><tag k="height" v="300'"/><tag k="postal_code" v="29376"/><tag k="start_date" v="1995"/><tag k="addr:street" v="James Road"/><tag k="tower:type" v="communication"/></node>
<node id="-99" lat="34.784202861" lon="-81.938992306" visible="true"><tag k="addr:housenumber" v="215"/><tag k="fixme" v=" ** Check before uploading ** "/><tag k="addr:city" v="Roebuck"/><tag k="man_made" v="mast"/><tag k="addr:state" v="SC"/><tag k="height" v="250'"/><tag k="postal_code" v="29376"/><tag k="start_date" v="1994"/><tag k="addr:street" v="Hatchett Road"/><tag k="tower:type" v="communication"/></node>
<node id="-100" lat="35.009648664" lon="-81.926397973" visible="true"><tag k="addr:housenumber" v="740"/><tag k="fixme" v=" ** Check before uploading ** "/><tag k="addr:city" v="Spartanburg"/><tag k="tower:construction" v="lattice"/><tag k="man_made" v="mast"/><tag k="addr:state" v="SC"/><tag k="height" v="180'"/><tag k="postal_code" v="29303"/><tag k="start_date" v="1998"/><tag k="addr:street" v="Bryant Road"/><tag k="tower:type" v="communication"/></node>
<node id="-101" lat="35.018298007" lon="-81.928213137" visible="true"><tag k="addr:housenumber" v="1310"/><tag k="fixme" v=" ** Check before uploading ** "/><tag k="addr:city" v="Spartanburg"/><tag k="man_made" v="mast"/><tag k="addr:state" v="SC"/><tag k="postal_code" v="29303"/><tag k="addr:street" v="Bryant Road"/><tag k="tower:type" v="communication"/></node>
<node id="-102" lat="34.989676709" lon="-81.935752767" visible="true"><tag k="addr:housenumber" v="1141"/><tag k="fixme" v=" ** Check before uploading ** "/><tag k="addr:city" v="Spartanburg"/><tag k="man_made" v="mast"/><tag k="addr:state" v="SC"/><tag k="postal_code" v="29303"/><tag k="addr:street" v="Iron Ore Road"/><tag k="tower:type" v="communication"/></node>
<node id="-103" lat="34.987421534" lon="-81.931787729" visible="true"><tag k="addr:housenumber" v="15"/><tag k="fixme" v=" ** Check before uploading ** "/><tag k="addr:city" v="Spartanburg"/><tag k="tower:construction" v="lattice"/><tag k="man_made" v="mast"/><tag k="addr:state" v="SC"/><tag k="height" v="169'"/><tag k="postal_code" v="29303"/><tag k="start_date" v="1995"/><tag k="addr:street" v="Ash Street"/><tag k="tower:type" v="communication"/></node>
<node id="-104" lat="34.989410131" lon="-81.852983067" visible="true"><tag k="addr:housenumber" v="3026"/><tag k="fixme" v=" ** Check before uploading ** "/><tag k="addr:city" v="Spartanburg"/><tag k="tower:construction" v="lattice"/><tag k="man_made" v="mast"/><tag k="addr:state" v="SC"/><tag k="height" v="180'"/><tag k="postal_code" v="29307"/><tag k="start_date" v="1998"/><tag k="addr:street" v="East Main Street Extension"/><tag k="tower:type" v="communication"/></node>
<node id="-105" lat="34.977610383" lon="-81.932235172" visible="true"><tag k="addr:housenumber" v="662"/><tag k="fixme" v=" ** Check before uploading ** "/><tag k="addr:city" v="Spartanburg"/><tag k="man_made" v="mast"/><tag k="addr:state" v="SC"/><tag k="postal_code" v="29303"/><tag k="addr:street" v="Chesnee Highway"/><tag k="tower:type" v="communication"/></node>
<node id="-106" lat="34.978167775" lon="-81.914374177" visible="true"><tag k="addr:housenumber" v="531"/><tag k="fixme" v=" ** Check before uploading ** "/><tag k="addr:city" v="Spartanburg"/><tag k="man_made" v="mast"/><tag k="addr:state" v="SC"/><tag k="height" v="400'"/><tag k="postal_code" v="29303"/><tag k="start_date" v="1994"/><tag k="addr:street" v="Archer Road"/><tag k="tower:type" v="communication"/></node>
<node id="-107" lat="34.965902456" lon="-81.934730751" visible="true"><tag k="addr:housenumber" v="101"/><tag k="fixme" v=" ** Check before uploading ** "/><tag k="addr:city" v="Spartanburg"/><tag k="man_made" v="mast"/><tag k="addr:state" v="SC"/><tag k="postal_code" v="29303"/><tag k="addr:street" v="Pinewood Place"/><tag k="tower:type" v="communication"/></node>
<node id="-108" lat="34.967428407" lon="-81.91257987" visible="true"><tag k="addr:housenumber" v="225"/><tag k="fixme" v=" ** Check before uploading ** "/><tag k="addr:city" v="Drayton"/><tag k="tower:construction" v="monopole"/><tag k="man_made" v="mast"/><tag k="addr:state" v="SC"/><tag k="height" v="185'"/><tag k="postal_code" v="29333"/><tag k="start_date" v="1996"/><tag k="addr:street" v="Milliken Street"/><tag k="tower:type" v="communication"/></node>
<node id="-109" lat="34.943013943" lon="-81.954720671" visible="true"><tag k="addr:housenumber" v="106"/><tag k="fixme" v=" ** Check before uploading ** "/><tag k="addr:city" v="Spartanburg"/><tag k="man_made" v="mast"/><tag k="addr:state" v="SC"/><tag k="postal_code" v="29302"/><tag k="addr:street" v="Westmoreland Street"/><tag k="tower:type" v="communication"/></node>
<node id="-110" lat="34.948418334" lon="-81.931449616" visible="true"><tag k="fixme" v=" ** Check before uploading ** "/><tag k="addr:city" v="Spartanburg"/><tag k="tower:construction" v="lattice"/><tag k="man_made" v="mast"/><tag k="addr:state" v="SC"/><tag k="height" v="140'"/><tag k="postal_code" v="29301"/><tag k="addr:street" v="South Church Street"/><tag k="tower:type" v="communication"/></node>
<node id="-111" lat="34.961583005" lon="-81.845504907" visible="true"><tag k="addr:housenumber" v="1916"/><tag k="fixme" v=" ** Check before uploading ** "/><tag k="addr:city" v="Spartanburg"/><tag k="man_made" v="mast"/><tag k="addr:state" v="SC"/><tag k="postal_code" v="29307"/><tag k="addr:street" v="Pineview Drive"/><tag k="tower:type" v="communication"/></node>
<node id="-112" lat="34.960737469" lon="-81.847248441" visible="true"><tag k="addr:housenumber" v="2000 - A"/><tag k="fixme" v=" ** Check before uploading ** "/><tag k="addr:city" v="Spartanburg"/><tag k="tower:construction" v="monopole"/><tag k="man_made" v="mast"/><tag k="addr:state" v="SC"/><tag k="height" v="180'"/><tag k="postal_code" v="29307"/><tag k="start_date" v="1999"/><tag k="addr:street" v="Pineview Drive"/><tag k="tower:type" v="communication"/></node>
<node id="-113" lat="34.921008244" lon="-81.937022161" visible="true"><tag k="fixme" v=" ** Check before uploading ** "/><tag k="man_made" v="mast"/><tag k="tower:type" v="communication"/></node>
<node id="-114" lat="34.930073331" lon="-81.889154537" visible="true"><tag k="addr:housenumber" v="171"/><tag k="fixme" v=" ** Check before uploading ** "/><tag k="addr:city" v="Spartanburg"/><tag k="tower:construction" v="lattice"/><tag k="man_made" v="mast"/><tag k="addr:state" v="SC"/><tag k="height" v="180'"/><tag k="postal_code" v="29302"/><tag k="start_date" v="1998"/><tag k="addr:street" v="Moreland Avenue"/><tag k="tower:type" v="communication"/></node>
<node id="-115" lat="34.92664506" lon="-81.836622681" visible="true"><tag k="addr:housenumber" v="2451"/><tag k="fixme" v=" ** Check before uploading ** "/><tag k="addr:city" v="Spartanburg"/><tag k="man_made" v="mast"/><tag k="addr:state" v="SC"/><tag k="height" v="250'"/><tag k="postal_code" v="29302"/><tag k="start_date" v="1992"/><tag k="addr:street" v="Whitestone Glendale Road"/><tag k="tower:type" v="communication"/></node>
<node id="-116" lat="34.915387792" lon="-81.908351841" visible="true"><tag k="addr:housenumber" v="1627"/><tag k="fixme" v=" ** Check before uploading ** "/><tag k="addr:city" v="Spartanburg"/><tag k="tower:construction" v="lattice"/><tag k="man_made" v="mast"/><tag k="addr:state" v="SC"/><tag k="height" v="180'"/><tag k="postal_code" v="29301"/><tag k="start_date" v="1993"/><tag k="addr:street" v="Southport Road"/><tag k="tower:type" v="communication"/></node>
<node id="-117" lat="34.91674718" lon="-81.906410478" visible="true"><tag k="addr:housenumber" v="1655"/><tag k="fixme" v=" ** Check before uploading ** "/><tag k="addr:city" v="Spartanburg"/><tag k="man_made" v="mast"/><tag k="addr:state" v="SC"/><tag k="postal_code" v="29301"/><tag k="addr:street" v="Southport Road"/><tag k="tower:type" v="communication"/></node>
<node id="-118" lat="34.911428536" lon="-81.84976926" visible="true"><tag k="addr:housenumber" v="210"/><tag k="fixme" v=" ** Check before uploading ** "/><tag k="addr:city" v="Spartanburg"/><tag k="man_made" v="mast"/><tag k="addr:state" v="SC"/><tag k="height" v="350'"/><tag k="postal_code" v="29302"/><tag k="start_date" v="1994"/><tag k="addr:street" v="Hickory Hill Road"/><tag k="tower:type" v="communication"/></node>
<node id="-119" lat="34.897233676" lon="-81.890294441" visible="true"><tag k="addr:housenumber" v="1749"/><tag k="fixme" v=" ** Check before uploading ** "/><tag k="addr:city" v="Spartanburg"/><tag k="tower:construction" v="lattice"/><tag k="man_made" v="mast"/><tag k="addr:state" v="SC"/><tag k="height" v="195'"/><tag k="postal_code" v="29301"/><tag k="start_date" v="1999"/><tag k="addr:street" v="Carolina County Club Road"/><tag k="tower:type" v="communication"/></node>
<node id="-120" lat="35.118519535" lon="-82.084617022" visible="true"><tag k="addr:housenumber" v="130"/><tag k="fixme" v=" ** Check before uploading ** "/><tag k="addr:city" v="Inman"/><tag k="tower:construction" v="lattice"/><tag k="man_made" v="mast"/><tag k="addr:state" v="SC"/><tag k="height" v="250'"/><tag k="postal_code" v="29349"/><tag k="start_date" v="2000"/><tag k="addr:street" v="Farm Road"/><tag k="tower:type" v="communication"/></node>
<node id="-121" lat="35.084881855" lon="-82.059188001" visible="true"><tag k="addr:housenumber" v="140"/><tag k="fixme" v=" ** Check before uploading ** "/><tag k="addr:city" v="Inman"/><tag k="tower:construction" v="monopole"/><tag k="man_made" v="mast"/><tag k="addr:state" v="SC"/><tag k="height" v="195'"/><tag k="postal_code" v="29349"/><tag k="start_date" v="2000"/><tag k="addr:street" v="Miller Farm Road"/><tag k="tower:type" v="communication"/></node>
<node id="-122" lat="34.933766513" lon="-82.082379097" visible="true"><tag k="addr:housenumber" v="2650"/><tag k="fixme" v=" ** Check before uploading ** "/><tag k="addr:city" v="Spartanburg"/><tag k="tower:construction" v="freestanding"/><tag k="man_made" v="mast"/><tag k="addr:state" v="SC"/><tag k="height" v="180'"/><tag k="addr:street" v="Nazareth Road"/><tag k="tower:type" v="communication"/></node>
</osm>